"","Short_Name","the_geom","Address","Lat","Long","Grade_Cat","AM_Bell_1415","PM_Bell_1415","AM_Bell_1516","PM_Bell_1415.1","changedBell"
"1","ACE TECH HS","POINT (-87.6258490370775 41.79612150915272)","5410 S State St",41.796122,-87.625849,"HS",NA,NA,NA,NA,0
"2","ADDAMS","POINT (-87.53297604186888 41.698738799501506)","10810 S Avenue H",41.698739,-87.532976,"ES",NA,NA,NA,NA,0
"3","AGASSIZ","POINT (-87.65622866787353 41.93412629732926)","2851 N Seminary Ave",41.934126,-87.656229,"ES","8:00 AM","3:00 PM","7:45 AM","3:00 PM",1
"4","AHS - PASSAGES","POINT (-87.67116041959915 41.983371435594066)","1643 W Bryn Mawr Ave",41.983371,-87.67116,"ES",NA,NA,NA,NA,0
"5","AIR FORCE HS","POINT (-87.63275698281277 41.828145321834505)","3630 S Wells St",41.828145,-87.632757,"HS",NA,NA,NA,NA,0
"6","ALBANY PARK","POINT (-87.7106087883064 41.97150444314325)","4929 N Sawyer Ave",41.971504,-87.710609,"ES",NA,NA,NA,NA,0
"7","ALCOTT ES","POINT (-87.64641313687183 41.9298498518581)","2625 N Orchard St",41.92985,-87.646413,"ES","7:45 AM","2:45 PM","7:30 AM","2:45 PM",1
"8","ALCOTT HS","POINT (-87.68056201292157 41.935794555495015)","2957 N Hoyne Ave",41.935795,-87.680562,"HS",NA,NA,NA,NA,0
"9","ALDRIDGE","POINT (-87.60647384722472 41.65740496963247)","630 E 131st St",41.657405,-87.606474,"ES",NA,NA,NA,NA,0
"10","AMANDLA HS","POINT (-87.63547156927478 41.77080225409796)","6800 S Stewart Ave",41.770802,-87.635472,"HS",NA,NA,NA,NA,0
"11","AMUNDSEN HS","POINT (-87.67948421515057 41.975067256161616)","5110 N Damen Ave",41.975067,-87.679484,"HS","7:45 AM","3:00 PM","7:45 AM","3:00 PM",2
"12","ARIEL","POINT (-87.59750293142264 41.81117346141953)","1119 E 46th St",41.811173,-87.597503,"ES",NA,NA,NA,NA,0
"13","ARMOUR","POINT (-87.6506531559409 41.83385390912795)","950 W 33rd Pl",41.833854,-87.650653,"ES",NA,NA,NA,NA,0
"14","ARMSTRONG G","POINT (-87.68444182723555 42.01014998355085)","2110 W Greenleaf Ave",42.01015,-87.684442,"ES",NA,NA,NA,NA,0
"15","ASHBURN","POINT (-87.70960968186675 41.74235056646534)","8300 S St Louis Ave",41.742351,-87.70961,"ES",NA,NA,NA,NA,0
"16","ASHE","POINT (-87.60117440817388 41.74018379060043)","8505 S Ingleside Ave",41.740184,-87.601174,"ES",NA,NA,NA,NA,0
"17","ASPIRA - BUSINESS & FINANCE HS","POINT (-87.71820414383802 41.93572646632058)","2989 N. Milwaukee Ave",41.935726,-87.718204,"HS",NA,NA,NA,NA,0
"18","ASPIRA - EARLY COLLEGE HS","POINT (-87.72709565821633 41.93729828458827)","3986 W Barry Ave",41.937298,-87.727096,"HS",NA,NA,NA,NA,0
"19","ASPIRA - HAUGAN","POINT (-87.72182466558868 41.96640566728407)","3729 W Leland Ave",41.966406,-87.721825,"ES",NA,NA,NA,NA,0
"20","AUDUBON","POINT (-87.68104105326863 41.94506222420041)","3500 N Hoyne Ave",41.945062,-87.681041,"ES",NA,NA,NA,NA,0
"21","AUSTIN BUS & ENTRP HS","POINT (-87.76189101689764 41.88420467132072)","231 N Pine Ave",41.884205,-87.761891,"HS","8:00 AM","3:15 PM","9:00 AM","3:15 PM",1
"22","AUSTIN POLY HS","POINT (-87.76190894992583 41.88512294334246)","231 N Pine Ave",41.885123,-87.761909,"HS","8:00 AM","3:15 PM","9:00 AM","3:15 PM",1
"23","AVALON PARK","POINT (-87.59165381067288 41.74824699361749)","8045 S Kenwood Ave",41.748247,-87.591654,"ES",NA,NA,NA,NA,0
"24","AZUELA","POINT (-87.73992023347819 41.77107907225546)","4707 W Marquette Rd",41.771079,-87.73992,"ES",NA,NA,NA,NA,0
"25","BACK OF THE YARDS HS","POINT (-87.67754136778272 41.808412542810615)","2111 W 47th St",41.808413,-87.677541,"HS","8:00 AM","3:12 PM","7:30 AM","3:12 PM",3
"26","BANNER WEST HS","POINT (-87.75406405283628 41.89567772457178)","819 N Leamington Ave",41.895678,-87.754064,"HS",NA,NA,NA,NA,0
"27","BARNARD","POINT (-87.65807422422662 41.705131010946644)","10354 S Charles St",41.705131,-87.658074,"ES",NA,NA,NA,NA,0
"28","BARRY","POINT (-87.73938835132714 41.93251058271708)","2828 N Kilbourn Ave",41.932511,-87.739388,"ES",NA,NA,NA,NA,0
"29","BARTON","POINT (-87.6709271289381 41.75419384970478)","7650 S Wolcott Ave",41.754194,-87.670927,"ES",NA,NA,NA,NA,0
"30","BASS","POINT (-87.65353241974717 41.77424645010303)","1140 W 66th St",41.774246,-87.653532,"ES",NA,NA,NA,NA,0
"31","BATEMAN","POINT (-87.7021509622272 41.95821983852925)","4220 N Richmond St",41.95822,-87.702151,"ES",NA,NA,NA,NA,0
"32","BEARD","POINT (-87.78963033129355 41.970124881986976)","6445 W Strong St",41.970125,-87.78963,"ES",NA,NA,NA,NA,0
"33","BEASLEY","POINT (-87.62569157868394 41.798464959416506)","5255 S State St",41.798465,-87.625692,"ES",NA,NA,NA,NA,0
"34","BEAUBIEN","POINT (-87.75756503952755 41.972393944348255)","5025 N Laramie Ave",41.972394,-87.757565,"ES",NA,NA,NA,NA,0
"35","BEETHOVEN","POINT (-87.6271368053334 41.80913475709233)","25 W 47th St",41.809135,-87.627137,"ES",NA,NA,NA,NA,0
"36","BEIDLER","POINT (-87.70585481254497 41.885321039653036)","3151 W Walnut St",41.885321,-87.705855,"ES",NA,NA,NA,NA,0
"37","BELDING","POINT (-87.73401972914144 41.95893849334404)","4257 N Tripp Ave",41.958938,-87.73402,"ES",NA,NA,NA,NA,0
"38","BELL","POINT (-87.68601824453435 41.9495297982177)","3730 N Oakley Ave",41.94953,-87.686018,"ES",NA,NA,NA,NA,0
"39","BELMONT-CRAGIN","POINT (-87.75684290347073 41.920150046216754)","5252 W Palmer St",41.92015,-87.756843,"ES",NA,NA,NA,NA,0
"40","BENNETT","POINT (-87.6173904557042 41.71043494882523)","10115 S Prairie Ave",41.710435,-87.61739,"ES",NA,NA,NA,NA,0
"41","BLACK","POINT (-87.57664295133351 41.72969236094013)","9101 S Euclid Ave",41.729692,-87.576643,"ES",NA,NA,NA,NA,0
"42","BLAINE","POINT (-87.66496784431662 41.95078051791929)","1420 W Grace St",41.950781,-87.664968,"ES",NA,NA,NA,NA,0
"43","BLAIR","POINT (-87.79060442493756 41.77655626936286)","6751 W 63rd Pl",41.776556,-87.790604,"ES",NA,NA,NA,NA,0
"44","BOGAN HS","POINT (-87.72109744581068 41.74937560925903)","3939 W 79th St",41.749376,-87.721097,"HS","8:30 AM","3:45 PM","8:30 AM","3:45 PM",2
"45","BOND","POINT (-87.6530177863627 41.765360565892145)","7050 S May St",41.765361,-87.653018,"ES",NA,NA,NA,NA,0
"46","BOONE","POINT (-87.69746282201558 42.003411606876426)","6710 N Washtenaw Ave",42.003412,-87.697463,"ES",NA,NA,NA,NA,0
"47","BOUCHET","POINT (-87.57607485768892 41.760847480286166)","7355 S Jeffery Blvd",41.760847,-87.576075,"ES",NA,NA,NA,NA,0
"48","BOWEN HS","POINT (-87.55755003399543 41.7346267201362)","2710 E 89th St",41.734627,-87.55755,"HS","8:00 AM","3:15 PM","8:00 AM","3:15 PM",2
"49","BRADWELL","POINT (-87.55714197050366 41.75436513144242)","7736 S Burnham Ave",41.754365,-87.557142,"ES",NA,NA,NA,NA,0
"50","BRENNEMANN","POINT (-87.64974916485644 41.95998415475999)","4251 N Clarendon Ave",41.959984,-87.649749,"ES",NA,NA,NA,NA,0
"51","BRENTANO","POINT (-87.69629419836876 41.93096609572725)","2723 N Fairfield Ave",41.930966,-87.696294,"ES",NA,NA,NA,NA,0
"52","BRIDGE","POINT (-87.7986689200407 41.949114385919835)","3800 N New England Ave",41.949114,-87.798669,"ES",NA,NA,NA,NA,0
"53","BRIGHT","POINT (-87.56208422942571 41.6997262209657)","10740 S Calhoun Ave",41.699726,-87.562084,"ES",NA,NA,NA,NA,0
"54","BRIGHTON PARK","POINT (-87.69207692951242 41.82390000005258)","3825 S Washtenaw Ave",41.8239,-87.692077,"ES",NA,NA,NA,NA,0
"55","BRONZEVILLE HS","POINT (-87.62500446852336 41.805204169976314)","4934 S Wabash Ave",41.805204,-87.625004,"HS","8:00 AM","3:30 PM","7:45 AM","3:30 PM",3
"56","BRONZEVILLE LIGHTHOUSE","POINT (-87.6266218014815 41.819276610409645)","8 W Root St",41.819277,-87.626622,"ES",NA,NA,NA,NA,0
"57","BROOKS HS","POINT (-87.61635260696305 41.69276252803521)","250 E 111th St",41.692763,-87.616353,"HS","8:00 AM","3:30 PM","8:00 AM","3:30 PM",2
"58","BROWN R","POINT (-87.63895772499524 41.6648733494355)","12607 S Union Ave",41.664873,-87.638958,"ES",NA,NA,NA,NA,0
"59","BROWN W","POINT (-87.67068239105942 41.882996783927005)","54 N Hermitage Ave",41.882997,-87.670682,"ES",NA,NA,NA,NA,0
"60","BROWNELL","POINT (-87.62174596862914 41.77162035925952)","6741 S Michigan Ave",41.77162,-87.621746,"ES",NA,NA,NA,NA,0
"61","BRUNSON","POINT (-87.76560565794742 41.89766257127694)","932 N Central Ave",41.897663,-87.765606,"ES",NA,NA,NA,NA,0
"62","BUDLONG","POINT (-87.69655603224551 41.97575432987602)","2701 W Foster Ave",41.975754,-87.696556,"ES",NA,NA,NA,NA,0
"63","BURBANK","POINT (-87.78269957037274 41.917598137128664)","2035 N Mobile Ave",41.917598,-87.7827,"ES",NA,NA,NA,NA,0
"64","BURKE","POINT (-87.6161405241058 41.79675956329529)","5356 S King Dr",41.79676,-87.616141,"ES",NA,NA,NA,NA,0
"65","BURLEY","POINT (-87.66985312360681 41.93793747338803)","1630 W Barry Ave",41.937937,-87.669853,"ES",NA,NA,NA,NA,0
"66","BURNHAM","POINT (-87.56713059141286 41.71440206202355)","9928 S Crandon Ave",41.714402,-87.567131,"ES",NA,NA,NA,NA,0
"67","BURNSIDE","POINT (-87.60743532151997 41.72848063786238)","650 E 91st Pl",41.728481,-87.607435,"ES",NA,NA,NA,NA,0
"68","BURR","POINT (-87.66866060400173 41.912357907608396)","1621 W Wabansia Ave",41.912358,-87.668661,"ES",NA,NA,NA,NA,0
"69","BURROUGHS","POINT (-87.69245662874545 41.82886790679988)","3542 S Washtenaw Ave",41.828868,-87.692457,"ES",NA,NA,NA,NA,0
"70","BYRNE","POINT (-87.79154448272317 41.79503096442445)","5329 S Oak Park Ave",41.795031,-87.791544,"ES",NA,NA,NA,NA,0
"71","CALDWELL","POINT (-87.58072902769884 41.739226354809425)","8546 S Cregier Ave",41.739226,-87.580729,"ES",NA,NA,NA,NA,0
"72","CALMECA","POINT (-87.71165364021692 41.82437732701595)","3456 W 38th St",41.824377,-87.711654,"ES",NA,NA,NA,NA,0
"73","CAMELOT - CHICAGO EXCEL HS","POINT (-87.65372653770633 41.691969313501716)","1257 W 111th St",41.691953,-87.654248,"HS",NA,NA,NA,NA,0
"74","CAMELOT - EXCEL ENGLEWOOD HS","POINT (-87.64912434651714 41.763895973142)","7141 S Morgan St",41.763896,-87.649124,"HS",NA,NA,NA,NA,0
"75","CAMELOT - EXCEL SOUTHWEST HS","POINT (-87.69073009144797 41.765928920283464)","7014 S Washtenaw Ave",41.765929,-87.69073,"HS",NA,NA,NA,NA,0
"76","CAMELOT - EXCEL WOODLAWN HS","POINT (-87.55648708381439 41.75974863887013)","7530 S South Shore Dr",41.759749,-87.556487,"HS",NA,NA,NA,NA,0
"77","CAMELOT SAFE - GARFIELD ES","POINT (-87.73948390563437 41.883605683825145)","230 N. Kolmar Ave",41.883606,-87.739484,"ES",NA,NA,NA,NA,0
"78","CAMELOT SAFE - GARFIELD HS","POINT (-87.73948468858828 41.884503267058406)","230 N. Kolmar Ave",41.884503,-87.739485,"HS",NA,NA,NA,NA,0
"79","CAMELOT SAFE ES","POINT (-87.55051275939341 41.75311714108796)","7877 S Coles Ave",41.753117,-87.550513,"ES",NA,NA,NA,NA,0
"80","CAMELOT SAFE HS","POINT (-87.55180355213128 41.75311490082064)","7877 S Coles Ave",41.753115,-87.551804,"HS",NA,NA,NA,NA,0
"81","CAMERON","POINT (-87.7179266352801 41.90379211755903)","1234 N Monticello Ave",41.903792,-87.717927,"ES",NA,NA,NA,NA,0
"82","CAMRAS","POINT (-87.77012725781505 41.93493062213945)","3000 N Mango Ave",41.934931,-87.770127,"ES",NA,NA,NA,NA,0
"83","CANTY","POINT (-87.82929570056865 41.94800702741078)","3740 N Panama Ave",41.948007,-87.829296,"ES",NA,NA,NA,NA,0
"84","CARDENAS","POINT (-87.7160174071218 41.848487770008255)","2345 S Millard Ave",41.848488,-87.716017,"ES",NA,NA,NA,NA,0
"85","CARNEGIE","POINT (-87.59079500880739 41.783368322962005)","1414 E 61st Pl",41.783368,-87.590795,"ES",NA,NA,NA,NA,0
"86","CARROLL","POINT (-87.69601207553609 41.74251662622091)","2929 W 83rd St",41.742517,-87.696012,"ES",NA,NA,NA,NA,0
"87","CARSON","POINT (-87.68779954330209 41.79327214360274)","5516 S Maplewood Ave",41.793272,-87.6878,"ES",NA,NA,NA,NA,0
"88","CARTER","POINT (-87.62245275222128 41.78982790477037)","5740 S Michigan Ave",41.789828,-87.622453,"ES",NA,NA,NA,NA,0
"89","CARVER G","POINT (-87.59951563229662 41.653702115282826)","901 E 133rd Pl",41.653702,-87.599516,"ES",NA,NA,NA,NA,0
"90","CARVER MILITARY HS","POINT (-87.59062038495499 41.656289951013775)","13100 S Doty Ave",41.65629,-87.59062,"HS",NA,NA,NA,NA,0
"91","CASALS","POINT (-87.71423364692633 41.90450276414419)","3501 W Potomac Ave",41.904503,-87.714234,"ES",NA,NA,NA,NA,0
"92","CASSELL","POINT (-87.70321548851709 41.68734705469558)","11314 S Spaulding Ave",41.687347,-87.703215,"ES",NA,NA,NA,NA,0
"93","CASTELLANOS","POINT (-87.714927013747 41.84544987859062)","2524 S Central Park Ave",41.84545,-87.714927,"ES",NA,NA,NA,NA,0
"94","CATALYST - CIRCLE ROCK","POINT (-87.76532197834973 41.882322220692345)","5608 W Washington Blvd",41.882322,-87.765322,"ES",NA,NA,NA,NA,0
"95","CATALYST - MARIA","POINT (-87.69307532228164 41.77099171830565)","6727 S California Ave",41.770992,-87.693075,"ES",NA,NA,NA,NA,0
"96","CATHER","POINT (-87.69918700860963 41.88294992416009)","2908 W Washington Blvd",41.88295,-87.699187,"ES",NA,NA,NA,NA,0
"97","CHALMERS","POINT (-87.69525936896072 41.86643525173846)","2745 W Roosevelt Rd",41.866435,-87.695259,"ES",NA,NA,NA,NA,0
"98","CHAPPELL","POINT (-87.6832635915828 41.97589430008067)","2135 W Foster Ave",41.975894,-87.683264,"ES",NA,NA,NA,NA,0
"99","CHASE","POINT (-87.69456225114092 41.917992652524866)","2021 N Point St",41.917993,-87.694562,"ES",NA,NA,NA,NA,0
"100","CHAVEZ","POINT (-87.6660369338872 41.807142830477545)","4747 S Marshfield Ave",41.807143,-87.666037,"ES",NA,NA,NA,NA,0
"101","CHICAGO ACADEMY ES","POINT (-87.77818680321612 41.94305591901944)","3400 N Austin Ave",41.943056,-87.778187,"ES",NA,NA,NA,NA,0
"102","CHICAGO ACADEMY HS","POINT (-87.77684656597673 41.94305449030517)","3400 N Austin Ave",41.943054,-87.776847,"HS",NA,NA,NA,NA,0
"103","CHICAGO AGRICULTURE HS","POINT (-87.71776967259495 41.69122074145255)","3857 W 111th St",41.691221,-87.71777,"HS",NA,NA,NA,NA,0
"104","CHICAGO ARTS HS","POINT (-87.6949450113285 41.89937657282699)","2714 W Augusta Blvd",41.899377,-87.694945,"HS",NA,NA,NA,NA,0
"105","CHICAGO COLLEGIATE","POINT (-87.61796787117214 41.67931844206332)","11816 S Indiana Ave",41.679318,-87.617968,"HS",NA,NA,NA,NA,0
"106","CHICAGO MATH & SCIENCE HS","POINT (-87.674818417881 42.01303148922014)","7212 N Clark St",42.013031,-87.674818,"HS",NA,NA,NA,NA,0
"107","CHICAGO MILITARY HS","POINT (-87.6192155427687 41.83055497712014)","3519 S Giles Ave",41.830555,-87.619216,"HS",NA,NA,NA,NA,0
"108","CHICAGO TECH HS","POINT (-87.65909480337876 41.86330140820912)","1301 W 14th St",41.863301,-87.659095,"HS",NA,NA,NA,NA,0
"109","CHICAGO VIRTUAL","POINT (-87.64977248488717 41.88055011166055)","38 S Peoria St",41.88055,-87.649772,"HS",NA,NA,NA,NA,0
"110","CHICAGO VOCATIONAL HS","POINT (-87.57326751564459 41.737173933540554)","2100 E 87th St",41.737174,-87.573268,"HS","8:00 AM","3:15 PM","8:00 AM","3:15 PM",2
"111","CHOPIN","POINT (-87.68893676228166 41.8967126885193)","2450 W Rice St",41.896713,-87.688937,"ES",NA,NA,NA,NA,0
"112","CHRISTOPHER","POINT (-87.68560700279922 41.801658623867255)","5042 S Artesian Ave",41.801659,-87.685607,"ES",NA,NA,NA,NA,0
"113","CHRISTOPHER HOUSE","POINT (-87.75752152826216 41.922181155970016)","5235 W Belden Ave",41.922181,-87.757522,"ES",NA,NA,NA,NA,0
"114","CICS - AVALON/SOUTH SHORE","POINT (-87.5879276410776 41.743179420034345)","1501 E 83rd Pl",41.743179,-87.587928,"ES",NA,NA,NA,NA,0
"115","CICS - BASIL","POINT (-87.6702426574399 41.79404286329775)","1816 W Garfield Blvd",41.794043,-87.670243,"ES",NA,NA,NA,NA,0
"116","CICS - BOND","POINT (-87.6050391022172 41.653663449591534)","13300 S Langley Ave",41.653663,-87.605039,"ES",NA,NA,NA,NA,0
"117","CICS - BUCKTOWN","POINT (-87.68135796458323 41.92241462943599)","2235 N Hamilton Ave",41.922415,-87.681358,"ES",NA,NA,NA,NA,0
"118","CICS - CHICAGOQUEST HS","POINT (-87.6455614992365 41.90779679515704)","1443 N Ogden Ave",41.907797,-87.645561,"HS",NA,NA,NA,NA,0
"119","CICS - ELLISON HS","POINT (-87.66897963928055 41.7483824079856)","1817 W 80th St",41.748382,-87.66898,"HS",NA,NA,NA,NA,0
"120","CICS - HAWKINS HS","POINT (-87.60187328368443 41.6531410568753)","801 E 133rd Pl",41.653141,-87.601873,"HS",NA,NA,NA,NA,0
"121","CICS - IRVING PARK","POINT (-87.71049242869645 41.95089127442423)","3820 N Spaulding Ave",41.950891,-87.710492,"ES",NA,NA,NA,NA,0
"122","CICS - LONGWOOD","POINT (-87.65576813290534 41.72122143249401)","1309 W 95th St",41.721221,-87.655768,"HS",NA,NA,NA,NA,0
"123","CICS - LOOMIS","POINT (-87.6575610581317 41.720246422855304)","9535 S Loomis St",41.720246,-87.657561,"ES",NA,NA,NA,NA,0
"124","CICS - NORTHTOWN HS","POINT (-87.7265042643701 41.99024501112797)","3900 W Peterson Ave",41.990245,-87.726504,"HS",NA,NA,NA,NA,0
"125","CICS - PRAIRIE","POINT (-87.6168883820636 41.68443303827316)","11530 S Prairie Ave",41.684433,-87.616888,"ES",NA,NA,NA,NA,0
"126","CICS - WASHINGTON PARK","POINT (-87.62206845449438 41.78361684616195)","6105 S Michigan Ave",41.783617,-87.622068,"ES",NA,NA,NA,NA,0
"127","CICS - WEST BELDEN","POINT (-87.77674853907737 41.921687494805006)","2245 N McVicker Ave",41.921687,-87.776749,"ES",NA,NA,NA,NA,0
"128","CICS - WRIGHTWOOD","POINT (-87.69261439899655 41.74536545022764)","8130 S California Ave",41.745365,-87.692614,"ES",NA,NA,NA,NA,0
"129","CLAREMONT","POINT (-87.68106119710424 41.77751050740778)","2300 W 64th St",41.777511,-87.681061,"ES",NA,NA,NA,NA,0
"130","CLARK ES","POINT (-87.77041752682254 41.86781256765913)","1045 S Monitor Ave",41.867813,-87.770418,"ES",NA,NA,NA,NA,0
"131","CLARK HS","POINT (-87.75332487193234 41.87288500487779)","5101 W Harrison St",41.872885,-87.753325,"HS","8:00 AM","2:58 PM","8:00 AM","2:58 PM",2
"132","CLAY","POINT (-87.5446135978392 41.654558148152226)","13231 S Burley Ave",41.654558,-87.544614,"ES",NA,NA,NA,NA,0
"133","CLEMENTE HS","POINT (-87.68690614642159 41.902625791356584)","1147 N Western Ave",41.902626,-87.686906,"HS","8:00 AM","3:15 PM","8:00 AM","3:15 PM",2
"134","CLEVELAND","POINT (-87.70644252562083 41.95204212105171)","3121 W Byron St",41.952042,-87.706443,"ES",NA,NA,NA,NA,0
"135","CLINTON","POINT (-87.69835995456619 41.99254135967918)","6110 N Fairfield Ave",41.992541,-87.69836,"ES",NA,NA,NA,NA,0
"136","CLISSOLD","POINT (-87.68089678722623 41.69302600601038)","2350 W 110th Pl",41.693026,-87.680897,"ES",NA,NA,NA,NA,0
"137","COLEMON","POINT (-87.6581108382993 41.67750544639792)","1441 W 119th St",41.677505,-87.658111,"ES",NA,NA,NA,NA,0
"138","COLES","POINT (-87.56596977129497 41.74141280665119)","8441 S Yates Blvd",41.741413,-87.56597,"ES",NA,NA,NA,NA,0
"139","COLLINS HS","POINT (-87.70204158575562 41.86414856713303)","1313 S Sacramento Dr",41.864149,-87.702042,"HS",NA,NA,NA,NA,0
"140","COLUMBIA EXPLORERS","POINT (-87.70419859057051 41.81106860888273)","4520 S Kedzie Ave",41.811069,-87.704199,"ES",NA,NA,NA,NA,0
"141","COLUMBUS","POINT (-87.68193804940178 41.899565775005705)","1003 N Leavitt St",41.899566,-87.681938,"ES",NA,NA,NA,NA,0
"142","COMMUNITY SERVICES WEST HS","POINT (-87.72502202021961 41.86495225895573)","1239 S Pulaski Rd",41.864952,-87.725022,"HS",NA,NA,NA,NA,0
"143","COOK","POINT (-87.65977459028453 41.74523702100367)","8150 S Bishop St",41.745237,-87.659775,"ES",NA,NA,NA,NA,0
"144","COONLEY","POINT (-87.6837653003924 41.955553194279794)","4046 N Leavitt St",41.955553,-87.683765,"ES",NA,NA,NA,NA,0
"145","COOPER","POINT (-87.66722708432971 41.85603119171157)","1624 W 19th St",41.856031,-87.667227,"ES","8:00 AM","3:00 PM","7:45 AM","3:00 PM",1
"146","CORKERY","POINT (-87.73119286519041 41.845602421801)","2510 S Kildare Ave",41.845602,-87.731193,"ES",NA,NA,NA,NA,0
"147","CORLISS HS","POINT (-87.60121587657939 41.70665961635234)","821 E 103rd St",41.70666,-87.601216,"HS",NA,NA,NA,NA,0
"148","COURTENAY","POINT (-87.6638529630281 41.962307771602156)","4420 N Beacon St",41.962308,-87.663853,"ES",NA,NA,NA,NA,0
"149","CRANE MEDICAL HS","POINT (-87.68330134670538 41.87694744336734)","2245 W Jackson Blvd",41.876947,-87.683301,"HS",NA,NA,NA,NA,0
"150","CROWN","POINT (-87.71247015110579 41.85266348732753)","2128 S Saint Louis Ave",41.852663,-87.71247,"ES",NA,NA,NA,NA,0
"151","CUFFE","POINT (-87.653633447573 41.74245162679323)","8324 S Racine Ave",41.742452,-87.653633,"ES",NA,NA,NA,NA,0
"152","CULLEN","POINT (-87.61124445831854 41.70033514112261)","10650 S Eberhart Ave",41.700335,-87.611244,"ES",NA,NA,NA,NA,0
"153","CURIE HS","POINT (-87.72204165487233 41.80306020651821)","4959 S Archer Ave",41.80306,-87.722042,"HS",NA,NA,NA,NA,0
"154","CURTIS","POINT (-87.62165260769711 41.68541839961311)","32 E 115th St",41.685418,-87.621653,"ES",NA,NA,NA,NA,0
"155","DALEY","POINT (-87.67220640191012 41.80234286751301)","5024 S Wolcott Ave",41.802343,-87.672206,"ES",NA,NA,NA,NA,0
"156","DARWIN","POINT (-87.70541291325716 41.92332271704915)","3116 W Belden Ave",41.923323,-87.705413,"ES",NA,NA,NA,NA,0
"157","DAVIS M","POINT (-87.66652988366556 41.77122111100117)","6730 S Paulina St",41.771221,-87.66653,"ES",NA,NA,NA,NA,0
"158","DAVIS N","POINT (-87.7002021605695 41.821851614213344)","3014 W 39th Pl",41.821852,-87.700202,"ES",NA,NA,NA,NA,0
"159","DAWES","POINT (-87.7173534238224 41.745077751391904)","3810 W 81st Pl",41.745078,-87.717353,"ES",NA,NA,NA,NA,0
"160","DE DIEGO","POINT (-87.68575620336632 41.905293853004956)","1313 N Claremont Ave",41.905294,-87.685756,"ES",NA,NA,NA,NA,0
"161","DECATUR","POINT (-87.70461859277748 42.00928855665608)","7030 N Sacramento Ave",42.009289,-87.704619,"ES","8:15 AM","3:15 PM","7:45 AM","3:15 PM",1
"162","DENEEN","POINT (-87.62334458913998 41.76249026378383)","7240 S Wabash Ave",41.76249,-87.623345,"ES",NA,NA,NA,NA,0
"163","DEPRIEST","POINT (-87.76629755491906 41.877978832845706)","139 S Parkside Ave",41.877979,-87.766298,"ES",NA,NA,NA,NA,0
"164","DETT","POINT (-87.680314966892 41.87986982049133)","2131 W Monroe St",41.87987,-87.680315,"ES",NA,NA,NA,NA,0
"165","DEVER","POINT (-87.81313152493892 41.942551669077154)","3436 N Osceola Ave",41.942552,-87.813132,"ES",NA,NA,NA,NA,0
"166","DEVRY HS","POINT (-87.69076139182408 41.941387639378604)","3300 N Campbell Ave",41.941388,-87.690761,"HS",NA,NA,NA,NA,0
"167","DEWEY","POINT (-87.64265157812974 41.795645683032404)","5415 S Union Ave",41.795646,-87.642652,"ES",NA,NA,NA,NA,0
"168","DIRKSEN","POINT (-87.84104144206444 41.973714777017804)","8601 W Foster Ave",41.973715,-87.841041,"ES",NA,NA,NA,NA,0
"169","DISNEY","POINT (-87.64608274383954 41.9568161303528)","4140 N Marine Dr",41.956816,-87.646083,"ES",NA,NA,NA,NA,0
"170","DISNEY II ES","POINT (-87.73067837579401 41.950460504979596)","3815 N Kedvale Ave",41.950461,-87.730678,"ES",NA,NA,NA,NA,0
"171","DISNEY II HS","POINT (-87.72136351148762 41.95248766904792)","3900 N Lawndale Ave",41.952488,-87.721364,"HS",NA,NA,NA,NA,0
"172","DIXON","POINT (-87.60997887509946 41.74366924140373)","8306 S Saint Lawrence Ave",41.743669,-87.609979,"ES",NA,NA,NA,NA,0
"173","DODGE","POINT (-87.70379373544037 41.88918417483859)","431 N Troy St",41.889184,-87.703794,"ES",NA,NA,NA,NA,0
"174","DOOLITTLE","POINT (-87.61227454254565 41.831120628379374)","535 E 35th St",41.831121,-87.612275,"ES",NA,NA,NA,NA,0
"175","DORE","POINT (-87.78760442137504 41.780954463499384)","6108 S Natoma Ave",41.780954,-87.787604,"ES",NA,NA,NA,NA,0
"176","DOUGLASS HS","POINT (-87.76766845611134 41.890368629426746)","543 N Waller Ave",41.890369,-87.767668,"HS","8:00 AM","3:30 PM","9:00 AM","3:30 PM",1
"177","DRAKE","POINT (-87.62855344680256 41.844043312481176)","2710 S Dearborn St",41.844043,-87.628553,"ES",NA,NA,NA,NA,0
"178","DRUMMOND","POINT (-87.67449459921097 41.91591380141686)","1845 W Cortland St",41.915914,-87.674495,"ES",NA,NA,NA,NA,0
"179","DUBOIS","POINT (-87.61432001023347 41.653732981105236)","330 E 133rd St",41.653733,-87.61432,"ES",NA,NA,NA,NA,0
"180","DULLES","POINT (-87.61721417933283 41.779900493386286)","6311 S Calumet Ave",41.7799,-87.617214,"ES",NA,NA,NA,NA,0
"181","DUNBAR HS","POINT (-87.61763743510639 41.8402255713266)","3000 S King Dr",41.840226,-87.617637,"HS",NA,NA,NA,NA,0
"182","DUNNE","POINT (-87.63997360471443 41.6964961631072)","10845 S Union Ave",41.696496,-87.639974,"ES",NA,NA,NA,NA,0
"183","DURKIN PARK","POINT (-87.72995529264325 41.73884394054015)","8445 S Kolin Ave",41.738844,-87.729955,"ES",NA,NA,NA,NA,0
"184","DVORAK","POINT (-87.71574357133596 41.858883446108784)","3615 W 16th St",41.858883,-87.715744,"ES",NA,NA,NA,NA,0
"185","EARHART","POINT (-87.58218173801623 41.726107455157944)","1710 E 93rd St",41.726107,-87.582182,"ES",NA,NA,NA,NA,0
"186","EARLE","POINT (-87.67554666058277 41.781225172259)","2040 W 62nd St",41.781225,-87.675547,"ES",NA,NA,NA,NA,0
"187","EBERHART","POINT (-87.7079526340532 41.774420451575004)","3400 W 65th Pl",41.77442,-87.707953,"ES",NA,NA,NA,NA,0
"188","EBINGER","POINT (-87.81116978458577 42.00440792082284)","7350 W Pratt Ave",42.004408,-87.81117,"ES",NA,NA,NA,NA,0
"189","EDGEBROOK","POINT (-87.76184047494398 41.99943683282867)","6525 N Hiawatha Ave",41.999437,-87.76184,"ES",NA,NA,NA,NA,0
"190","EDISON","POINT (-87.70930366602214 41.971506096123875)","4929 N Sawyer Ave",41.971506,-87.709304,"ES",NA,NA,NA,NA,0
"191","EDISON PARK","POINT (-87.81377123423816 41.99423794930761)","6220 N Olcott Ave",41.994238,-87.813771,"ES",NA,NA,NA,NA,0
"192","EDWARDS","POINT (-87.72585617780953 41.80554153937759)","4815 S Karlov Ave",41.805542,-87.725856,"ES",NA,NA,NA,NA,0
"193","ELLINGTON","POINT (-87.76658937744578 41.885529579816364)","243 N Parkside Ave",41.88553,-87.766589,"ES",NA,NA,NA,NA,0
"194","EPIC HS","POINT (-87.55022236992653 41.74484910534052)","8255 S Houston Ave",41.744849,-87.550222,"HS",NA,NA,NA,NA,0
"195","ERICSON","POINT (-87.71580443126261 41.875744122387985)","3600 W 5th Ave",41.875744,-87.715804,"ES",NA,NA,NA,NA,0
"196","ERIE","POINT (-87.69436444554765 41.90677063462042)","1405 N Washtenaw Ave",41.906771,-87.694364,"ES",NA,NA,NA,NA,0
"197","ESMOND","POINT (-87.66915866972074 41.689419605923355)","1865 W Montvale Ave",41.68942,-87.669159,"ES",NA,NA,NA,NA,0
"198","EVERETT","POINT (-87.68131030397245 41.83155516036679)","3419 S Bell Ave",41.831555,-87.68131,"ES",NA,NA,NA,NA,0
"199","EVERGREEN","POINT (-87.66781651171694 41.82935561852021)","3537 S Paulina St",41.829356,-87.667817,"ES",NA,NA,NA,NA,0
"200","EVERS","POINT (-87.63930546861731 41.71566535732864)","9811 S Lowe Ave",41.715665,-87.639305,"ES",NA,NA,NA,NA,0
"201","FAIRFIELD","POINT (-87.69211506409064 41.78090389780261)","6201 S Fairfield Ave",41.780904,-87.692115,"ES",NA,NA,NA,NA,0
"202","FALCONER","POINT (-87.74933062509248 41.93578457338712)","3020 N Lamon Ave",41.935785,-87.749331,"ES",NA,NA,NA,NA,0
"203","FARADAY","POINT (-87.70809201987342 41.87971359074486)","3250 W Monroe St",41.879714,-87.708092,"ES",NA,NA,NA,NA,0
"204","FARNSWORTH","POINT (-87.76607165770453 41.9797900550337)","5414 N Linder Ave",41.97979,-87.766072,"ES",NA,NA,NA,NA,0
"205","FARRAGUT HS","POINT (-87.70870563207117 41.84855987425176)","2345 S Christiana Ave",41.84856,-87.708706,"HS","8:00 AM","3:08 PM","9:00 AM","3:08 PM",1
"206","FENGER HS","POINT (-87.63757205073344 41.68995072460742)","11220 S Wallace St",41.689951,-87.637572,"HS","8:05 AM","3:15 PM","9:00 AM","3:15 PM",1
"207","FERNWOOD","POINT (-87.64041364601377 41.711183621888566)","10041 S Union Ave",41.711184,-87.640414,"ES",NA,NA,NA,NA,0
"208","FIELD","POINT (-87.66998540121291 42.0096638544324)","7019 N Ashland Ave",42.009664,-87.669985,"ES",NA,NA,NA,NA,0
"209","FINKL","POINT (-87.6856678431443 41.84921490509248)","2332 S Western Ave",41.849215,-87.685668,"ES",NA,NA,NA,NA,0
"210","FISKE","POINT (-87.60863289677822 41.78518281595433)","6020 S Langley Ave",41.785183,-87.608633,"ES",NA,NA,NA,NA,0
"211","FOREMAN HS","POINT (-87.75416654341426 41.93979676706975)","3235 N LeClaire Ave",41.939797,-87.754167,"HS","7:45 AM","3:15 PM","7:45 AM","3:15 PM",2
"212","FORT DEARBORN","POINT (-87.65548116040235 41.72967267427433)","9025 S Throop St",41.729673,-87.655481,"ES",NA,NA,NA,NA,0
"213","FOSTER PARK","POINT (-87.66809931189269 41.738425477021146)","8530 S Wood St",41.738425,-87.668099,"ES",NA,NA,NA,NA,0
"214","FOUNDATIONS","POINT (-87.65353524849981 41.69467073849163)","1233 W. 109th Street",41.694671,-87.653535,"HS",NA,NA,NA,NA,0
"215","FRANKLIN","POINT (-87.63551281030391 41.90659998963077)","225 W Evergreen Ave",41.9066,-87.635513,"ES","8:15 AM","3:15 PM","8:15 AM","3:15 PM",2
"216","FRAZIER CHARTER","POINT (-87.71764197612555 41.86207686339486)","3711 W Douglas Blvd",41.862077,-87.717642,"ES",NA,NA,NA,NA,0
"217","FRAZIER PROSPECTIVE","POINT (-87.72724437858491 41.86697962642255)","4027 W Grenshaw St",41.86698,-87.727244,"ES","8:00 AM","3:00 PM","7:45 AM","3:00 PM",3
"218","FULLER","POINT (-87.61178404274118 41.81800340294159)","4214 S St Lawrence Ave",41.818003,-87.611784,"ES",NA,NA,NA,NA,0
"219","FULTON","POINT (-87.66843588139683 41.7975802703773)","5300 S Hermitage Ave",41.79758,-87.668436,"ES",NA,NA,NA,NA,0
"220","FUNSTON","POINT (-87.71689166494224 41.91761651356991)","2010 N Central Park Ave",41.917617,-87.716892,"ES",NA,NA,NA,NA,0
"221","GAGE PARK HS","POINT (-87.68895394224992 41.791012838392405)","5630 S Rockwell St",41.791013,-87.688954,"HS","7:45 AM","3:00 PM","9:00 AM","3:00 PM",1
"222","GALAPAGOS","POINT (-87.72195903871022 41.89731302422711)","3814 W Iowa St",41.897313,-87.721959,"ES",NA,NA,NA,NA,0
"223","GALE","POINT (-87.67193897606161 42.0210905573077)","1631 W Jonquil Ter",42.021091,-87.671939,"ES",NA,NA,NA,NA,0
"224","GALILEO","POINT (-87.65336555274118 41.8712548235351)","820 S Carpenter St",41.871255,-87.653366,"ES",NA,NA,NA,NA,0
"225","GALLISTEL","POINT (-87.53517530621241 41.70680099904343)","10347 S Ewing Ave",41.706801,-87.535175,"ES",NA,NA,NA,NA,0
"226","GARVEY","POINT (-87.64757716533317 41.70660285871767)","10309 S Morgan St",41.706603,-87.647577,"ES",NA,NA,NA,NA,0
"227","GARVY","POINT (-87.79623511347634 41.97635166333006)","5225 N Oak Park Ave",41.976352,-87.796235,"ES",NA,NA,NA,NA,0
"228","GARY","POINT (-87.7186966352411 41.837065151315606)","3740 W 31st St",41.837065,-87.718697,"ES",NA,NA,NA,NA,0
"229","GILLESPIE","POINT (-87.62371943795503 41.72533227871203)","9301 S State St",41.725332,-87.623719,"ES",NA,NA,NA,NA,0
"230","GLOBAL CITIZENSHIP","POINT (-87.7400974361456 41.80757850716726)","4647 W 47th St",41.807579,-87.740097,"ES",NA,NA,NA,NA,0
"231","GOETHE","POINT (-87.69289969575996 41.92283100686743)","2236 N Rockwell St",41.922831,-87.6929,"ES",NA,NA,NA,NA,0
"232","GOODE HS","POINT (-87.70734534775977 41.75374980207247)","7651 S Homan Ave",41.75375,-87.707345,"HS",NA,NA,NA,NA,0
"233","GOUDY","POINT (-87.65791249294597 41.97581652979213)","5120 N Winthrop Ave",41.975817,-87.657912,"ES",NA,NA,NA,NA,0
"234","GRAHAM ES","POINT (-87.64334423529118 41.81330372874002)","4436 S Union Ave",41.813304,-87.643344,"ES",NA,NA,NA,NA,0
"235","GRAHAM HS","POINT (-87.625314815783 41.84967541722844)","2347 S Wabash Ave",41.849675,-87.625315,"HS",NA,NA,NA,NA,0
"236","GRAY","POINT (-87.75711559878769 41.94876357882175)","3730 N Laramie Ave",41.948764,-87.757116,"ES",NA,NA,NA,NA,0
"237","GREAT LAKES","POINT (-87.55990690198568 41.74267138138489)","8401 S Saginaw Ave",41.742671,-87.559907,"ES",NA,NA,NA,NA,0
"238","GREELEY","POINT (-87.65097986913507 41.952809511505976)","832 W Sheridan Rd",41.95281,-87.65098,"ES",NA,NA,NA,NA,0
"239","GREEN","POINT (-87.6525001396679 41.7192919472838)","1150 W 96th St",41.719292,-87.6525,"ES",NA,NA,NA,NA,0
"240","GREENE","POINT (-87.6714923697844 41.82966928098321)","3525 S Honore St",41.829669,-87.671492,"ES",NA,NA,NA,NA,0
"241","GREGORY","POINT (-87.71866612875756 41.87074216207702)","3715 W Polk St",41.870742,-87.718666,"ES",NA,NA,NA,NA,0
"242","GRESHAM","POINT (-87.6450252378634 41.738920157362905)","8524 S Green St",41.73892,-87.645025,"ES",NA,NA,NA,NA,0
"243","GRIMES","POINT (-87.75880329373048 41.77546426102638)","5450 W 64th Pl",41.775464,-87.758803,"ES",NA,NA,NA,NA,0
"244","GRISSOM","POINT (-87.55330670974692 41.662480998189885)","12810 S Escanaba Ave",41.662481,-87.553307,"ES",NA,NA,NA,NA,0
"245","GUNSAULUS","POINT (-87.69936418518634 41.81300736949125)","4420 S Sacramento Ave",41.813007,-87.699364,"ES",NA,NA,NA,NA,0
"246","HAINES","POINT (-87.63380633151597 41.8499583150072)","247 W 23rd Pl",41.849958,-87.633806,"ES",NA,NA,NA,NA,0
"247","HALE","POINT (-87.77657870912519 41.78019173154665)","6140 S Melvina Ave",41.780192,-87.776579,"ES",NA,NA,NA,NA,0
"248","HALEY","POINT (-87.63363213640979 41.68665996971829)","11411 S Eggleston Ave",41.68666,-87.633632,"ES",NA,NA,NA,NA,0
"249","HAMILTON","POINT (-87.67086537348014 41.945219653783845)","1650 W Cornelia Ave",41.94522,-87.670865,"ES",NA,NA,NA,NA,0
"250","HAMLINE","POINT (-87.66117465942679 41.80724155714083)","4747 S Bishop St",41.807242,-87.661175,"ES","8:00 AM","3:00 PM","7:45 AM","3:00 PM",1
"251","HAMMOND","POINT (-87.69624330058983 41.852719133989446)","2819 W 21st Pl",41.852719,-87.696243,"ES",NA,NA,NA,NA,0
"252","HAMPTON","POINT (-87.70873128492987 41.75345719261593)","3434 W 77th St",41.753457,-87.708731,"ES",NA,NA,NA,NA,0
"253","HANCOCK HS","POINT (-87.7244704648031 41.79146390857298)","4034 W 56th St",41.791464,-87.72447,"HS",NA,NA,NA,NA,0
"254","HANSON PARK","POINT (-87.76151477104636 41.92395525749148)","5411 W Fullerton Ave",41.923955,-87.761515,"ES",NA,NA,NA,NA,0
"255","HARLAN HS","POINT (-87.62062343653518 41.7183723456041)","9652 S Michigan Ave",41.718372,-87.620623,"HS",NA,NA,NA,NA,0
"256","HARPER HS","POINT (-87.66908929605185 41.77512408325922)","6520 S Wood St",41.775124,-87.669089,"HS",NA,NA,NA,NA,0
"257","HARTE","POINT (-87.58685459677777 41.79344724333088)","1556 E 56th St",41.793447,-87.586855,"ES",NA,NA,NA,NA,0
"258","HARVARD","POINT (-87.6327368738333 41.757340541503886)","7525 S Harvard",41.757341,-87.632737,"ES",NA,NA,NA,NA,0
"259","HAUGAN","POINT (-87.72312803519034 41.96402870872475)","4540 N Hamlin Ave",41.964029,-87.723128,"ES",NA,NA,NA,NA,0
"260","HAWTHORNE","POINT (-87.65770887692337 41.942275488111704)","3319 N Clifton Ave",41.942275,-87.657709,"ES","8:30 AM","3:30 PM","8:45 AM","3:30 PM",1
"261","HAY","POINT (-87.75581325312729 41.899171355267384)","1018 N Laramie Ave",41.899171,-87.755813,"ES",NA,NA,NA,NA,0
"262","HAYT","POINT (-87.6685037744945 41.994540885911015)","1518 W Granville Ave",41.994541,-87.668504,"ES",NA,NA,NA,NA,0
"263","HEALY","POINT (-87.64034075006907 41.8395948554548)","3010 S Parnell Ave",41.839595,-87.640341,"ES",NA,NA,NA,NA,0
"264","HEARST","POINT (-87.74572605724302 41.80817499945475)","4640 S Lamon Ave",41.808175,-87.745726,"ES",NA,NA,NA,NA,0
"265","HEDGES","POINT (-87.67332725936954 41.80711213119837)","4747 S Winchester Ave",41.807112,-87.673327,"ES",NA,NA,NA,NA,0
"266","HEFFERAN","POINT (-87.73580189396901 41.87866464646667)","4409 W Wilcox St",41.878665,-87.735802,"ES",NA,NA,NA,NA,0
"267","HENDERSON","POINT (-87.67188730687042 41.79059128644693)","5650 S Wolcott Ave",41.790591,-87.671887,"ES",NA,NA,NA,NA,0
"268","HENDRICKS","POINT (-87.6336644770139 41.815787751119224)","4316 S Princeton Ave",41.815788,-87.633664,"ES","8:15 AM","3:15 PM","8:15 AM","3:15 PM",2
"269","HENRY","POINT (-87.71563237185069 41.95898879683837)","4250 N Saint Louis Ave",41.958989,-87.715632,"ES",NA,NA,NA,NA,0
"270","HERNANDEZ","POINT (-87.71136992166338 41.79347932957567)","3510 W 55th St",41.793479,-87.71137,"ES",NA,NA,NA,NA,0
"271","HERZL","POINT (-87.71899385397786 41.86208129597785)","3711 W Douglas Blvd",41.862081,-87.718994,"ES",NA,NA,NA,NA,0
"272","HIBBARD","POINT (-87.71036161364023 41.97033523444268)","3244 W Ainslie St",41.970335,-87.710362,"ES",NA,NA,NA,NA,0
"273","HIGGINS","POINT (-87.64699403752527 41.68103136983004)","11710 S Morgan St",41.681031,-87.646994,"ES",NA,NA,NA,NA,0
"274","HIRSCH HS","POINT (-87.60172726591252 41.753747955321906)","7740 S Ingleside Ave",41.753748,-87.601727,"HS","8:49 AM","3:57 PM","9:00 AM","3:57 PM",1
"275","HITCH","POINT (-87.77912305218847 41.98367169546214)","5625 N McVicker Ave",41.983672,-87.779123,"ES",NA,NA,NA,NA,0
"276","HOLDEN","POINT (-87.65379166824974 41.838027387432774)","1104 W 31st St",41.838027,-87.653792,"ES",NA,NA,NA,NA,0
"277","HOLMES","POINT (-87.64979535586481 41.79378764869643)","955 W Garfield Blvd",41.793788,-87.649795,"ES",NA,NA,NA,NA,0
"278","HOPE HS","POINT (-87.64124410974966 41.79355346673504)","5515 S Lowe Ave",41.793553,-87.641244,"HS",NA,NA,NA,NA,0
"279","HOPE INSTITUTE","POINT (-87.66807694586895 41.883362026352174)","1628 W Washington",41.883362,-87.668077,"ES",NA,NA,NA,NA,0
"280","HORIZON - SOUTHWEST","POINT (-87.68396339287392 41.79520095266694)","5401 S. Western",41.795201,-87.683963,"ES",NA,NA,NA,NA,0
"281","HOWE","POINT (-87.75939838484895 41.89361221078825)","720 N Lorel Ave",41.893612,-87.759398,"ES",NA,NA,NA,NA,0
"282","HOYNE","POINT (-87.56822810113663 41.733337751830604)","8905 S Crandon Ave",41.733338,-87.568228,"ES",NA,NA,NA,NA,0
"283","HUBBARD HS","POINT (-87.71801374341135 41.78052638668544)","6200 S Hamlin Ave",41.780526,-87.718014,"HS",NA,NA,NA,NA,0
"284","HUGHES C","POINT (-87.73177738698969 41.86051773760308)","4247 W 15th St",41.860518,-87.731777,"ES",NA,NA,NA,NA,0
"285","HUGHES L","POINT (-87.62986865922376 41.70534232127106)","240 W 104th St",41.705342,-87.629869,"ES",NA,NA,NA,NA,0
"286","HURLEY","POINT (-87.71954083233076 41.76678528090275)","3849 W 69th Pl",41.766785,-87.719541,"ES",NA,NA,NA,NA,0
"287","HYDE PARK HS","POINT (-87.58661501015993 41.782256926776796)","6220 S Stony Island Ave",41.782257,-87.586615,"HS","8:00 AM","3:15 PM","9:00 AM","3:15 PM",1
"288","INFINITY HS","POINT (-87.73527796116318 41.83616881821603)","3120 S Kostner Ave",41.836169,-87.735278,"HS",NA,NA,NA,NA,0
"289","INSTITUTO - HEALTH","POINT (-87.68724015857727 41.84596658796288)","2520 S Western Ave",41.845967,-87.68724,"HS",NA,NA,NA,NA,0
"290","INSTITUTO - LOZANO HS","POINT (-87.68406493808419 41.84544601533066)","2570 S Blue Island Ave",41.845446,-87.684065,"HS",NA,NA,NA,NA,0
"291","INSTITUTO - LOZANO MASTERY HS","POINT (-87.68590261102727 41.845956673444746)","2520 S Western Ave",41.845957,-87.685903,"HS",NA,NA,NA,NA,0
"292","INTER-AMERICAN","POINT (-87.65157334176013 41.94900329989232)","851 W Waveland Ave",41.949003,-87.651573,"ES",NA,NA,NA,NA,0
"293","INTRINSIC HS","POINT (-87.74112862650028 41.93898842805861)","4540 W Belmont Ave",41.938988,-87.741129,"HS",NA,NA,NA,NA,0
"294","IRVING","POINT (-87.68361565161099 41.87159549121377)","749 S Oakley Blvd",41.871595,-87.683616,"ES","8:30 AM","3:30 PM","7:30 AM","3:30 PM",1
"295","JACKSON A","POINT (-87.66098467201674 41.87429963801844)","1340 W Harrison St",41.8743,-87.660985,"ES",NA,NA,NA,NA,0
"296","JACKSON M","POINT (-87.64676673420541 41.73412547182453)","917 W 88th St",41.734125,-87.646767,"ES",NA,NA,NA,NA,0
"297","JAHN","POINT (-87.67580971887296 41.939247496161926)","3149 N Wolcott Ave",41.939247,-87.67581,"ES",NA,NA,NA,NA,0
"298","JAMIESON","POINT (-87.70052942024131 41.984640775481616)","5650 N Mozart St",41.984641,-87.700529,"ES","8:30 AM","3:30 PM","8:45 AM","3:30 PM",3
"299","JEFFERSON HS","POINT (-87.6804175551467 41.86783228494752)","1100 S Hamilton Ave",41.867832,-87.680418,"HS",NA,NA,NA,NA,0
"300","JENNER","POINT (-87.64105555983569 41.90205484084685)","1119 N Cleveland Ave",41.902055,-87.641056,"ES",NA,NA,NA,NA,0
"301","JENSEN","POINT (-87.70224105282095 41.87381494708294)","3030 W Harrison St",41.873815,-87.702241,"ES",NA,NA,NA,NA,0
"302","JOHNSON","POINT (-87.70313876236544 41.86183619133296)","1420 S Albany Ave",41.861836,-87.703139,"ES",NA,NA,NA,NA,0
"303","JONES HS","POINT (-87.6276753224599 41.87306592278668)","700 S State St",41.873066,-87.627675,"HS","8:00 AM","3:30 PM","8:00 AM","3:30 PM",2
"304","JOPLIN","POINT (-87.66936564978361 41.74933916101331)","7931 S Honore St",41.749339,-87.669366,"ES",NA,NA,NA,NA,0
"305","JORDAN","POINT (-87.67776251668089 42.017087590797864)","7414 N Wolcott Ave",42.017088,-87.677763,"ES",NA,NA,NA,NA,0
"306","JUAREZ HS","POINT (-87.66373244658195 41.852666599349455)","2150 S Laflin St",41.852667,-87.663732,"HS","7:45 AM","3:00 PM","7:45 AM","3:00 PM",2
"307","JULIAN HS","POINT (-87.6537492110773 41.70585893586945)","10330 S Elizabeth St",41.705859,-87.653749,"HS","8:00 AM","3:15 PM","8:00 AM","3:15 PM",2
"308","JUNGMAN","POINT (-87.65230159442224 41.858064776310364)","1746 S Miller St",41.858065,-87.652302,"ES",NA,NA,NA,NA,0
"309","KANOON","POINT (-87.70511207744957 41.85077148316291)","2233 S Kedzie Ave",41.850771,-87.705112,"ES",NA,NA,NA,NA,0
"310","KELLER","POINT (-87.69727833650737 41.69717033380235)","3020 W 108th St",41.69717,-87.697278,"ES",NA,NA,NA,NA,0
"311","KELLMAN","POINT (-87.70216290453644 41.87016771674499)","3030 W Arthington St",41.870168,-87.702163,"ES",NA,NA,NA,NA,0
"312","KELLOGG","POINT (-87.67723250661533 41.72526343898277)","9241 S Leavitt St",41.725263,-87.677233,"ES",NA,NA,NA,NA,0
"313","KELLY HS","POINT (-87.69463865995434 41.81872906331999)","4136 S California Ave",41.818729,-87.694639,"HS","7:45 AM","3:00 PM","7:30 AM","3:00 PM",1
"314","KELVYN PARK HS","POINT (-87.73599882204394 41.92791840255751)","4343 W Wrightwood Ave",41.927918,-87.735999,"HS","8:00 AM","3:15 PM","9:00 AM","3:15 PM",1
"315","KENNEDY HS","POINT (-87.78083975557989 41.789961251743584)","6325 W 56th St",41.789961,-87.78084,"HS",NA,NA,NA,NA,0
"316","KENWOOD HS","POINT (-87.59042088968275 41.80377211875098)","5015 S Blackstone Ave",41.803772,-87.590421,"HS","8:00 AM","3:15 PM","9:00 AM","3:15 PM",1
"317","KERSHAW","POINT (-87.64089202532394 41.77645280983267)","6450 S Lowe Ave",41.776453,-87.640892,"ES",NA,NA,NA,NA,0
"318","KILMER","POINT (-87.6682224666858 42.00364046203036)","6700 N Greenview Ave",42.00364,-87.668222,"ES",NA,NA,NA,NA,0
"319","KING ES","POINT (-87.64133454023674 41.76533497916643)","644 W 71st St",41.765335,-87.641335,"ES",NA,NA,NA,NA,0
"320","KING HS","POINT (-87.60387386150998 41.81367545210487)","4445 S Drexel Blvd",41.813675,-87.603874,"HS",NA,NA,NA,NA,0
"321","KINZIE","POINT (-87.77948260008061 41.78996463403319)","5625 S Mobile Ave",41.789965,-87.779483,"ES",NA,NA,NA,NA,0
"322","KIPLING","POINT (-87.63952072145291 41.723626905205585)","9351 S Lowe Ave",41.723627,-87.639521,"ES",NA,NA,NA,NA,0
"323","KIPP - ASCEND","POINT (-87.72107064667848 41.85836974325148)","1616 S Avers Ave",41.85837,-87.721071,"ES",NA,NA,NA,NA,0
"324","KIPP CHICAGO - ASCEND PRIMARY","POINT (-87.70928683026301 41.861174188233996)","1440 S. Christiana",41.861174,-87.709287,"ES",NA,NA,NA,NA,0
"325","KIPP CHICAGO - BLOOM","POINT (-87.63996733124056 41.7935562671543)","5515 S Lowe Ave",41.793556,-87.639967,"ES",NA,NA,NA,NA,0
"326","KIPP CHICAGO - CREATE","POINT (-87.74661383905315 41.89181614207475)","4818 W Ohio St",41.891816,-87.746614,"ES",NA,NA,NA,NA,0
"327","KOZMINSKI","POINT (-87.60248144762679 41.79800187719355)","936 E 54th St",41.798002,-87.602481,"ES",NA,NA,NA,NA,0
"328","LAKE VIEW HS","POINT (-87.66895268957454 41.954764066986755)","4015 N Ashland Ave",41.954764,-87.668953,"HS","8:15 AM","3:45 PM","8:15 AM","3:45 PM",2
"329","LANE TECH HS","POINT (-87.69101262731388 41.94664457379102)","2501 W Addison St",41.946645,-87.691013,"HS",NA,NA,NA,NA,0
"330","LANGFORD","POINT (-87.6571692055841 41.78468086070149)","6010 S Throop St",41.784681,-87.657169,"ES",NA,NA,NA,NA,0
"331","LARA","POINT (-87.67218159319019 41.80977029647794)","4619 S Wolcott Ave",41.80977,-87.672182,"ES",NA,NA,NA,NA,0
"332","LASALLE","POINT (-87.63756486380431 41.913899532151724)","1734 N Orleans St",41.9139,-87.637565,"ES",NA,NA,NA,NA,0
"333","LASALLE II","POINT (-87.67369603159537 41.90291445672382)","1148 N Honore St",41.902914,-87.673696,"ES",NA,NA,NA,NA,0
"334","LAVIZZO","POINT (-87.62714768796361 41.69626234683378)","138 W 109th St",41.696262,-87.627148,"ES",NA,NA,NA,NA,0
"335","LAWNDALE","POINT (-87.71295678691394 41.86296002399929)","3500 W Douglas Blvd",41.86296,-87.712957,"ES",NA,NA,NA,NA,0
"336","LEARN - 7","POINT (-87.70139734989546 41.88741028428423)","3021 W Carroll Ave",41.88741,-87.701397,"ES",NA,NA,NA,NA,0
"337","LEARN - BUTLER","POINT (-87.71067948018276 41.867272713446)","1132 S Homan Ave",41.867273,-87.710679,"ES",NA,NA,NA,NA,0
"338","LEARN - CAMPBELL","POINT (-87.69873872021792 41.8778606308216)","212 S Francisco Ave",41.877861,-87.698739,"ES",NA,NA,NA,NA,0
"339","LEARN - EXCEL","POINT (-87.68656837092625 41.874687140382775)","2401 W Congress Pkwy",41.874687,-87.686568,"ES",NA,NA,NA,NA,0
"340","LEARN - MIDDLE","POINT (-87.70270389867642 41.88741270254248)","3021 W Carroll Ave",41.887413,-87.702704,"ES",NA,NA,NA,NA,0
"341","LEARN - PERKINS","POINT (-87.6657210550116 41.74312176969033)","1700 W 83rd St",41.743122,-87.665721,"ES",NA,NA,NA,NA,0
"342","LEARN - SOUTH CHICAGO","POINT (-87.54557989247587 41.733333132396425)","8914 S Buffalo Ave",41.733333,-87.54558,"ES",NA,NA,NA,NA,0
"343","LEE","POINT (-87.72888429248569 41.775305386871715)","6448 S Tripp Ave",41.775305,-87.728884,"ES",NA,NA,NA,NA,0
"344","LEGACY","POINT (-87.73034814818169 41.85685915778028)","4217 W 18th St",41.856859,-87.730348,"ES",NA,NA,NA,NA,0
"345","LEGAL PREP HS","POINT (-87.73377838257323 41.88173275809993)","4319 W Washington Blvd",41.881733,-87.733778,"HS",NA,NA,NA,NA,0
"346","LELAND","POINT (-87.7492755544441 41.873586779781725)","512 S Lavergne Ave",41.873587,-87.749276,"ES",NA,NA,NA,NA,0
"347","LENART","POINT (-87.62804036298056 41.7471859177014)","8101 S LaSalle St",41.747186,-87.62804,"ES",NA,NA,NA,NA,0
"348","LEWIS","POINT (-87.75454995048698 41.9068260497377)","1431 N Leamington Ave",41.906826,-87.75455,"ES",NA,NA,NA,NA,0
"349","LIBBY","POINT (-87.6599328173989 41.79768483179142)","5300 S Loomis Blvd",41.797685,-87.659933,"ES","8:00 AM","3:00 PM","9:00 AM","3:00 PM",1
"350","LINCOLN","POINT (-87.64449730365006 41.92452481572454)","615 W Kemper Pl",41.924525,-87.644497,"ES",NA,NA,NA,NA,0
"351","LINCOLN PARK HS","POINT (-87.64600935977995 41.918268310846855)","2001 N Orchard St",41.918268,-87.646009,"HS","7:45 AM","3:00 PM","9:00 AM","3:00 PM",1
"352","LINDBLOM HS","POINT (-87.67166185010217 41.78204080268008)","6130 S Wolcott Ave",41.782041,-87.671662,"HS","8:00 AM","3:11 PM","8:00 AM","3:11 PM",2
"353","LITTLE BLACK PEARL HS","POINT (-87.59933994051981 41.80969549575752)","1060 E 47th St",41.809695,-87.59934,"HS",NA,NA,NA,NA,0
"354","LITTLE VILLAGE","POINT (-87.71731895283156 41.84369811780561)","2620 S Lawndale Ave",41.843698,-87.717319,"ES",NA,NA,NA,NA,0
"355","LLOYD","POINT (-87.74851501331425 41.91881409548188)","2103 N Lamon Ave",41.918814,-87.748515,"ES",NA,NA,NA,NA,0
"356","LOCKE A","POINT (-87.70523452626735 41.87724835217878)","3141 W Jackson Blvd",41.877248,-87.705235,"ES",NA,NA,NA,NA,0
"357","LOCKE J","POINT (-87.7956040707078 41.93176235366776)","2828 N Oak Park Ave",41.931762,-87.795604,"ES",NA,NA,NA,NA,0
"358","LOGANDALE","POINT (-87.70804087664251 41.933970195336244)","3212 W George St",41.93397,-87.708041,"ES",NA,NA,NA,NA,0
"359","LORCA","POINT (-87.72478312317251 41.9400259129367)","3231 N Springfield Ave",41.940026,-87.724783,"ES",NA,NA,NA,NA,0
"360","LOVETT","POINT (-87.78391884722994 41.91271802638446)","6333 W Bloomingdale Ave",41.912718,-87.783919,"ES",NA,NA,NA,NA,0
"361","LOWELL","POINT (-87.71021700220736 41.9065195908169)","3320 W Hirsch St",41.90652,-87.710217,"ES",NA,NA,NA,NA,0
"362","LOZANO","POINT (-87.66509327249487 41.908886127226424)","1501 N Greenview Ave",41.908886,-87.665093,"ES",NA,NA,NA,NA,0
"363","LYON","POINT (-87.77717419855678 41.9341921621779)","2941 N McVicker Ave",41.934192,-87.777174,"ES",NA,NA,NA,NA,0
"364","MADERO","POINT (-87.70506426030519 41.840956911056914)","3202 W 28th St",41.840957,-87.705064,"ES",NA,NA,NA,NA,0
"365","MADISON","POINT (-87.59071239549729 41.759548059733554)","7433 S Dorchester Ave",41.759548,-87.590712,"ES",NA,NA,NA,NA,0
"366","MAGIC JOHNSON - BRAINERD HS","POINT (-87.66313972969736 41.73149230200658)","8908 S. Ashland Ave",41.731492,-87.66314,"HS",NA,NA,NA,NA,0
"367","MAGIC JOHNSON - ENGLEWOOD HS","POINT (-87.64628397589932 41.76872909028501)","845 W. 69th Street",41.768729,-87.646284,"HS",NA,NA,NA,NA,0
"368","MAGIC JOHNSON - HUMBOLDT PK HS","POINT (-87.68788899354239 41.90292503158993)","2421 W. Division",41.902925,-87.687889,"HS",NA,NA,NA,NA,0
"369","MAGIC JOHNSON - N LAWNDALE HS","POINT (-87.70660367628103 41.86647785073419)","3222 W Roosevelt Rd",41.866478,-87.706604,"HS",NA,NA,NA,NA,0
"370","MAGIC JOHNSON - ROSELAND HS","POINT (-87.64269696855584 41.69515983904818)","10928 S. Halsted Ave",41.69516,-87.642697,"HS",NA,NA,NA,NA,0
"371","MANIERRE","POINT (-87.6398265130955 41.90824688190267)","1420 N Hudson Ave",41.908247,-87.639827,"ES",NA,NA,NA,NA,0
"372","MANLEY HS","POINT (-87.69989559006844 41.870938956115715)","2935 W Polk St",41.870939,-87.699896,"HS","8:00 AM","3:30 PM","9:00 AM","3:30 PM",1
"373","MANN","POINT (-87.57481563758823 41.748274127169125)","8050 S Chappel Ave",41.748274,-87.574816,"ES",NA,NA,NA,NA,0
"374","MARINE LEADERSHIP AT AMES HS","POINT (-87.72174231737525 41.91604463278367)","1920 N Hamlin Ave",41.916045,-87.721742,"HS",NA,NA,NA,NA,0
"375","MARINE MILITARY HS","POINT (-87.6883137238018 41.87912345881399)","145 S Campbell Ave",41.879123,-87.688314,"HS",NA,NA,NA,NA,0
"376","MARQUETTE","POINT (-87.6970297996588 41.773881079473696)","6550 S Richmond St",41.773881,-87.69703,"ES",NA,NA,NA,NA,0
"377","MARSH","POINT (-87.55248342633648 41.71658801410098)","9822 S Exchange Ave",41.716588,-87.552483,"ES",NA,NA,NA,NA,0
"378","MARSHALL HS","POINT (-87.70805007000293 41.878444085065304)","3250 W Adams St",41.878444,-87.70805,"HS","8:00 AM","3:30 PM","8:00 AM","3:30 PM",2
"379","MARSHALL MIDDLE","POINT (-87.71998811665746 41.95249186019569)","3900 N Lawndale Ave",41.952492,-87.719988,"ES",NA,NA,NA,NA,0
"380","MASON","POINT (-87.73167243331923 41.856863699936575)","4217 W 18th St",41.856864,-87.731672,"ES",NA,NA,NA,NA,0
"381","MATHER HS","POINT (-87.7024963959148 41.987588681534916)","5835 N Lincoln Ave",41.987589,-87.702496,"HS","8:00 AM","3:15 PM","8:00 AM","3:15 PM",2
"382","MAYER","POINT (-87.65728743867017 41.923203521706576)","2250 N Clifton Ave",41.923204,-87.657287,"ES",NA,NA,NA,NA,0
"383","MAYS","POINT (-87.63727734722184 41.77272749698267)","6656 S Normal Blvd",41.772727,-87.637277,"ES",NA,NA,NA,NA,0
"384","MCAULIFFE","POINT (-87.72393113192713 41.914816341068494)","1841 N Springfield Ave",41.914816,-87.723931,"ES",NA,NA,NA,NA,0
"385","MCCLELLAN","POINT (-87.64110257492602 41.82999286245968)","3527 S Wallace St",41.829993,-87.641103,"ES",NA,NA,NA,NA,0
"386","MCCORMICK","POINT (-87.70630009244496 41.842267164887254)","2712 S Sawyer Ave",41.842267,-87.7063,"ES",NA,NA,NA,NA,0
"387","MCCUTCHEON","POINT (-87.65475844818178 41.97094908241216)","4865 N Sheridan Rd",41.970949,-87.654758,"ES",NA,NA,NA,NA,0
"388","MCDADE","POINT (-87.61921444334452 41.734549907687025)","8801 S Indiana Ave",41.73455,-87.619214,"ES",NA,NA,NA,NA,0
"389","MCDOWELL","POINT (-87.5895894989699 41.73313231289348)","1419 E 89th St",41.733132,-87.589589,"ES",NA,NA,NA,NA,0
"390","MCKAY","POINT (-87.69178650238979 41.768142764164764)","6901 S Fairfield Ave",41.768143,-87.691787,"ES",NA,NA,NA,NA,0
"391","MCNAIR","POINT (-87.746730778981 41.89781906890852)","4820 W Walton St",41.897819,-87.746731,"ES",NA,NA,NA,NA,0
"392","MCPHERSON","POINT (-87.67628825271328 41.967846867335744)","4728 N Wolcott Ave",41.967847,-87.676288,"ES",NA,NA,NA,NA,0
"393","MELODY","POINT (-87.72466123099161 41.87879893150588)","3937 W Wilcox St",41.878799,-87.724661,"ES","9:00 AM","4:00 PM","7:45 AM","4:00 PM",1
"394","METCALFE","POINT (-87.63430552146107 41.669444022000064)","12339 S Normal Ave",41.669444,-87.634306,"ES",NA,NA,NA,NA,0
"395","MIRELES","POINT (-87.55278794403495 41.731716915777696)","9000 S Exchange Ave",41.731717,-87.552788,"ES",NA,NA,NA,NA,0
"396","MITCHELL","POINT (-87.68318458647029 41.89208216559126)","2233 W Ohio St",41.892082,-87.683185,"ES",NA,NA,NA,NA,0
"397","MOLLISON","POINT (-87.61661794440623 41.81435828266922)","4415 S Dr Martin L King Jr Dr",41.814358,-87.616618,"ES",NA,NA,NA,NA,0
"398","MONROE","POINT (-87.71922375120822 41.92998860278084)","3651 W Schubert Ave",41.929989,-87.719224,"ES",NA,NA,NA,NA,0
"399","MONTEFIORE","POINT (-87.6664442313907 41.86472415354908)","1310 S Ashland Ave",41.864724,-87.666444,"ES",NA,NA,NA,NA,0
"400","MONTESSORI ENGLEWOOD","POINT (-87.6761467270317 41.77457160183466)","6550 S Seeley Ave",41.774572,-87.676147,"ES",NA,NA,NA,NA,0
"401","MOOS","POINT (-87.69694138664606 41.91250548291535)","1711 N California Ave",41.912505,-87.696941,"ES",NA,NA,NA,NA,0
"402","MORGAN PARK HS","POINT (-87.66565754496752 41.692035008508086)","1744 W Pryor Ave",41.692035,-87.665658,"HS","7:45 AM","3:00 PM","7:30 AM","3:00 PM",1
"403","MORRILL","POINT (-87.68854925560024 41.78431328119842)","6011 S Rockwell St",41.784313,-87.688549,"ES",NA,NA,NA,NA,0
"404","MORTON","POINT (-87.70510783023086 41.88917813407392)","431 N Troy St",41.889178,-87.705108,"ES",NA,NA,NA,NA,0
"405","MOUNT GREENWOOD","POINT (-87.70580994530282 41.69573386171196)","10841 S Homan Ave",41.695734,-87.70581,"ES",NA,NA,NA,NA,0
"406","MOUNT VERNON","POINT (-87.64765248641302 41.70195211667478)","10540 S Morgan St",41.701952,-87.647652,"ES",NA,NA,NA,NA,0
"407","MOVING EVEREST","POINT (-87.75542435402248 41.888262580706225)","416 N. Laramie Ave",41.888259,-87.755281,"ES",NA,NA,NA,NA,0
"408","MOZART","POINT (-87.72188814417898 41.92090964878958)","2200 N Hamlin Ave",41.92091,-87.721888,"ES",NA,NA,NA,NA,0
"409","MULTICULTURAL HS","POINT (-87.73528329746294 41.83528187300786)","3120 S Kostner Ave",41.835282,-87.735283,"HS",NA,NA,NA,NA,0
"410","MURPHY","POINT (-87.7168318549406 41.950077752802876)","3539 W Grace St",41.950078,-87.716832,"ES",NA,NA,NA,NA,0
"411","MURRAY","POINT (-87.5933404058958 41.79853548417411)","5335 S Kenwood Ave",41.798535,-87.59334,"ES","8:30 AM","3:30 PM","8:45 AM","3:30 PM",3
"412","NAMASTE","POINT (-87.66772404315803 41.82569975919439)","3737 S Paulina St",41.8257,-87.667724,"ES",NA,NA,NA,NA,0
"413","NASH","POINT (-87.7479358786049 41.891809750157385)","4837 W Erie St",41.89181,-87.747936,"ES",NA,NA,NA,NA,0
"414","NATIONAL TEACHERS","POINT (-87.6293083300546 41.852799769560356)","55 W Cermak Rd",41.8528,-87.629308,"ES",NA,NA,NA,NA,0
"415","NEIL","POINT (-87.62093345478371 41.738406594106955)","8555 S Michigan Ave",41.738407,-87.620933,"ES",NA,NA,NA,NA,0
"416","NETTELHORST","POINT (-87.64456122175856 41.94163655396518)","3252 N Broadway St",41.941637,-87.644561,"ES",NA,NA,NA,NA,0
"417","NEW FIELD","POINT (-87.67316832831897 42.00770257031356)","1707 W Morse Ave",42.007703,-87.673168,"ES",NA,NA,NA,NA,0
"418","NEW SULLIVAN","POINT (-87.54292760848404 41.7438285237854)","8331 S Mackinaw Ave",41.743829,-87.542928,"ES",NA,NA,NA,NA,0
"419","NEWBERRY","POINT (-87.64599025176014 41.91394721683887)","700 W Willow St",41.913947,-87.64599,"ES",NA,NA,NA,NA,0
"420","NICHOLSON","POINT (-87.64745284219362 41.78494237944745)","6006 S Peoria St",41.784942,-87.647453,"ES",NA,NA,NA,NA,0
"421","NIGHTINGALE","POINT (-87.68913886412332 41.797714378199906)","5250 S Rockwell St",41.797714,-87.689139,"ES",NA,NA,NA,NA,0
"422","NINOS HEROES","POINT (-87.55186171909111 41.743753082956964)","8344 S Commercial Ave",41.743753,-87.551862,"ES",NA,NA,NA,NA,0
"423","NIXON","POINT (-87.73142009141083 41.91958145241738)","2121 N Keeler Ave",41.919581,-87.73142,"ES",NA,NA,NA,NA,0
"424","NKRUMAH","POINT (-87.6310581484369 41.69804048768888)","314 W 108th St",41.69804,-87.631058,"ES",NA,NA,NA,NA,0
"425","NOBEL","POINT (-87.7299546321371 41.906155152624784)","4127 W Hirsch St",41.906155,-87.729955,"ES",NA,NA,NA,NA,0
"426","NOBLE - ACADEMY HS","POINT (-87.64557693645881 41.90687879476261)","1443 N Ogden Ave",41.906879,-87.645577,"HS",NA,NA,NA,NA,0
"427","NOBLE - BAKER HS","POINT (-87.55620144126588 41.734622370920235)","2710 E 89th St",41.734622,-87.556201,"HS",NA,NA,NA,NA,0
"428","NOBLE - BULLS HS","POINT (-87.67819526008935 41.87880880820402)","2040 W Adams St",41.878809,-87.678195,"HS",NA,NA,NA,NA,0
"429","NOBLE - BUTLER HS","POINT (-87.6025733174385 41.70666685789389)","821 E 103rd St",41.706667,-87.602573,"HS",NA,NA,NA,NA,0
"430","NOBLE - COMER HS","POINT (-87.60197357257634 41.76408299254324)","7200 S Ingleside Ave",41.764083,-87.601974,"HS",NA,NA,NA,NA,0
"431","NOBLE - DRW HS","POINT (-87.71165422601833 41.86932807602724)","931 S Homan Ave",41.869328,-87.711654,"HS",NA,NA,NA,NA,0
"432","NOBLE - GOLDER HS","POINT (-87.6644829982708 41.89528219351542)","1454 W Superior St",41.895282,-87.664483,"HS",NA,NA,NA,NA,0
"433","NOBLE - HANSBERRY HS","POINT (-87.65098672813494 41.73444162257932)","8748 S Aberdeen St",41.734442,-87.650987,"HS",NA,NA,NA,NA,0
"434","NOBLE - ITW SPEER HS","POINT (-87.76980777377591 41.92563027099737)","2456 N. Mango Ave.",41.92563,-87.769808,"HS",NA,NA,NA,NA,0
"435","NOBLE - JOHNSON HS","POINT (-87.63511669814089 41.77836949819535)","6350 S Stewart Ave",41.778369,-87.635117,"HS",NA,NA,NA,NA,0
"436","NOBLE - MUCHIN HS","POINT (-87.62633828257938 41.88274025751338)","1 N State St",41.88274,-87.626338,"HS",NA,NA,NA,NA,0
"437","NOBLE - NOBLE HS","POINT (-87.66262778167372 41.90019052021951)","1010 N Noble St",41.900191,-87.662628,"HS",NA,NA,NA,NA,0
"438","NOBLE - PRITZKER HS","POINT (-87.73012671512001 41.915214106291515)","4131 W Cortland Ave",41.915214,-87.730127,"HS",NA,NA,NA,NA,0
"439","NOBLE - RAUNER HS","POINT (-87.66085887019145 41.89242501192071)","1337 W Ohio St",41.892425,-87.660859,"HS",NA,NA,NA,NA,0
"440","NOBLE - ROWE CLARK HS","POINT (-87.7180467674582 41.895362257861905)","3645 W Chicago Ave",41.895362,-87.718047,"HS",NA,NA,NA,NA,0
"441","NOBLE - UIC HS","POINT (-87.67611092929258 41.86581741295497)","1231 S Damen Ave",41.865817,-87.676111,"HS",NA,NA,NA,NA,0
"442","NORTH LAWNDALE - CHRISTIANA HS","POINT (-87.70898711067419 41.85856355371996)","1615 S. Christiana Ave.",41.858564,-87.708987,"HS",NA,NA,NA,NA,0
"443","NORTH LAWNDALE - COLLINS HS","POINT (-87.70068060050889 41.86414584262254)","1313 S Sacramento Dr",41.864146,-87.700681,"HS",NA,NA,NA,NA,0
"444","NORTH RIVER","POINT (-87.70715072858638 41.961721056162425)","4416 N Troy St",41.961721,-87.707151,"ES",NA,NA,NA,NA,0
"445","NORTH-GRAND HS","POINT (-87.73523755590614 41.911673691951975)","4338 W Wabansia Ave",41.911674,-87.735238,"HS","8:00 AM","3:15 PM","7:45 AM","3:15 PM",3
"446","NORTHSIDE LEARNING HS","POINT (-87.72238621571651 41.982972521350106)","3730 W Bryn Mawr Ave",41.982973,-87.722386,"HS",NA,NA,NA,NA,0
"447","NORTHSIDE PREP HS","POINT (-87.70870780029277 41.981315282164225)","5501 N Kedzie Ave",41.981315,-87.708708,"HS",NA,NA,NA,NA,0
"448","NORTHWEST","POINT (-87.75815425646772 41.920154769536886)","5252 W Palmer St",41.920155,-87.758154,"ES",NA,NA,NA,NA,0
"449","NORWOOD PARK","POINT (-87.80297944019507 41.98815250589104)","5900 N Nina Ave",41.988153,-87.802979,"ES",NA,NA,NA,NA,0
"450","OGDEN ES","POINT (-87.62929656996623 41.899976489128576)","24 W Walton St",41.899976,-87.629297,"ES",NA,NA,NA,NA,0
"451","OGDEN HS","POINT (-87.65940468390802 41.89354763742638)","1250 W Erie St",41.893548,-87.659405,"HS","8:00 AM","3:15 PM","8:00 AM","3:15 PM",2
"452","OGLESBY","POINT (-87.64546949680098 41.75467006250112)","7646 S Green St",41.75467,-87.645469,"ES",NA,NA,NA,NA,0
"453","OKEEFFE","POINT (-87.5728059552137 41.76860231154097)","6940 S Merrill Ave",41.768602,-87.572806,"ES",NA,NA,NA,NA,0
"454","OMBUDSMAN - NORTHWEST HS","POINT (-87.80668177202595 42.01717123859378)","7500 N Harlem Ave",42.017171,-87.806682,"HS",NA,NA,NA,NA,0
"455","OMBUDSMAN - SOUTH HS","POINT (-87.68363453098567 41.78302658100531)","6057 S. Western Ave",41.783027,-87.683635,"HS",NA,NA,NA,NA,0
"456","OMBUDSMAN - WEST HS","POINT (-87.68784229473063 41.87467299423606)","2401 W. Congress Pkwy",41.874673,-87.687842,"HS",NA,NA,NA,NA,0
"457","ONAHAN","POINT (-87.79310825558973 41.9937903492193)","6634 W Raven St",41.99379,-87.793108,"ES",NA,NA,NA,NA,0
"458","ORIOLE PARK","POINT (-87.81205403932759 41.9785013758202)","5424 N Oketo Ave",41.978501,-87.812054,"ES",NA,NA,NA,NA,0
"459","OROZCO","POINT (-87.67521045905876 41.85775480922287)","1940 W 18th St",41.857755,-87.67521,"ES",NA,NA,NA,NA,0
"460","ORR HS","POINT (-87.72616633149474 41.89444882583946)","730 N Pulaski Rd",41.894449,-87.726166,"HS","8:00 AM","3:15 PM","7:45 AM","3:15 PM",3
"461","ORTIZ DE DOMINGUEZ","POINT (-87.71719032064492 41.838790519718465)","3000 S Lawndale Ave",41.838791,-87.71719,"ES",NA,NA,NA,NA,0
"462","OTIS","POINT (-87.66542623612253 41.8918060814393)","525 N Armour St",41.891806,-87.665426,"ES",NA,NA,NA,NA,0
"463","OTOOLE","POINT (-87.67486499994195 41.774571073095146)","6550 S Seeley Ave",41.774571,-87.674865,"ES",NA,NA,NA,NA,0
"464","OWEN","POINT (-87.70574908734706 41.742849921440886)","8247 S Christiana Ave",41.74285,-87.705749,"ES",NA,NA,NA,NA,0
"465","OWENS","POINT (-87.62254566113222 41.67061753941053)","12302 S State St",41.670618,-87.622546,"ES",NA,NA,NA,NA,0
"466","PALMER","POINT (-87.73921294532467 41.973289392716545)","5051 N Kenneth Ave",41.973289,-87.739213,"ES",NA,NA,NA,NA,0
"467","PARK MANOR","POINT (-87.61154559295288 41.76647654287654)","7037 S Rhodes Ave",41.766477,-87.611546,"ES",NA,NA,NA,NA,0
"468","PARKER","POINT (-87.63408585643052 41.77077979510436)","6800 S Stewart Ave",41.77078,-87.634086,"ES",NA,NA,NA,NA,0
"469","PARKSIDE","POINT (-87.58295438328867 41.76855518979434)","6938 S East End Ave",41.768555,-87.582954,"ES",NA,NA,NA,NA,0
"470","PASTEUR","POINT (-87.73266645509617 41.7868953763614)","5825 S Kostner Ave",41.786895,-87.732666,"ES",NA,NA,NA,NA,0
"471","PATHWAYS - ASHBURN HS","POINT (-87.70406006745607 41.73523902190375)","3284 W 87th St",41.735239,-87.70406,"HS",NA,NA,NA,NA,0
"472","PATHWAYS - AVONDALE HS","POINT (-87.70520632194193 41.939433208880146)","3100 W Belmont Ave",41.939433,-87.705206,"HS",NA,NA,NA,NA,0
"473","PATHWAYS - BRIGHTON PARK HS","POINT (-87.70264475188843 41.80822578508329)","3124 W. 47th Street",41.808226,-87.702645,"HS",NA,NA,NA,NA,0
"474","PAYTON HS","POINT (-87.63538476565044 41.90157516923655)","1034 N Wells St",41.901575,-87.635385,"HS","8:00 AM","3:30 PM","8:00 AM","3:30 PM",2
"475","PEACE AND EDUCATION HS","POINT (-87.66737776498584 41.803514715263766)","4946 S Paulina St",41.803515,-87.667378,"HS",NA,NA,NA,NA,0
"476","PECK","POINT (-87.71921626099447 41.787898970019334)","3826 W 58th St",41.787899,-87.719216,"ES",NA,NA,NA,NA,0
"477","PEIRCE","POINT (-87.66585003642594 41.9834557917677)","1423 W Bryn Mawr Ave",41.983456,-87.66585,"ES",NA,NA,NA,NA,0
"478","PENN","POINT (-87.72238554795983 41.858372419321185)","1616 S Avers Ave",41.858372,-87.722386,"ES",NA,NA,NA,NA,0
"479","PEREZ","POINT (-87.65798012817092 41.856028722413164)","1241 W 19th St",41.856029,-87.65798,"ES",NA,NA,NA,NA,0
"480","PERSHING","POINT (-87.61833765413427 41.83652695283858)","3200 S Calumet Ave",41.836527,-87.618338,"ES",NA,NA,NA,NA,0
"481","PERSPECTIVES - JOSLIN HS","POINT (-87.62853090127128 41.85599910415865)","1930 S Archer Ave",41.855999,-87.628531,"HS",NA,NA,NA,NA,0
"482","PERSPECTIVES - LEADERSHIP HS","POINT (-87.65204508804683 41.745960831206645)","8131 S May St",41.745961,-87.652045,"HS",NA,NA,NA,NA,0
"483","PERSPECTIVES - MATH & SCI HS","POINT (-87.62478772028292 41.82778385667928)","3663 S Wabash Ave",41.827784,-87.624788,"HS",NA,NA,NA,NA,0
"484","PERSPECTIVES - TECH HS","POINT (-87.65065702433984 41.74594901871308)","8131 S May St",41.745949,-87.650657,"HS",NA,NA,NA,NA,0
"485","PETERSON","POINT (-87.71258257739447 41.98155713756842)","5510 N Christiana Ave",41.981557,-87.712583,"ES",NA,NA,NA,NA,0
"486","PHILLIPS HS","POINT (-87.61979634587938 41.82387996779332)","244 E Pershing Rd",41.82388,-87.619796,"HS",NA,NA,NA,NA,0
"487","PHOENIX MILITARY HS","POINT (-87.68696021852011 41.87911823064722)","145 S Campbell Ave",41.879118,-87.68696,"HS",NA,NA,NA,NA,0
"488","PICCOLO","POINT (-87.73126059578696 41.90013965509071)","1040 N Keeler Ave",41.90014,-87.731261,"ES",NA,NA,NA,NA,0
"489","PICKARD","POINT (-87.68329074302004 41.85290039422442)","2301 W 21st Pl",41.8529,-87.683291,"ES",NA,NA,NA,NA,0
"490","PILSEN","POINT (-87.66220943346809 41.85884887551057)","1420 W 17th St",41.858849,-87.662209,"ES",NA,NA,NA,NA,0
"491","PIRIE","POINT (-87.60789113713174 41.740340233052464)","650 E 85th St",41.74034,-87.607891,"ES",NA,NA,NA,NA,0
"492","PLAMONDON","POINT (-87.69252575071623 41.86025889851631)","2642 W 15th Pl",41.860259,-87.692526,"ES",NA,NA,NA,NA,0
"493","PLATO","POINT (-87.76333693224704 41.872760427950524)","5545 W Harrison St",41.87276,-87.763337,"ES",NA,NA,NA,NA,0
"494","POE","POINT (-87.60641917382425 41.70263000088163)","10538 S Langley Ave",41.70263,-87.606419,"ES",NA,NA,NA,NA,0
"495","POLARIS","POINT (-87.70779647434141 41.89255017349458)","620 N Sawyer Ave",41.89255,-87.707796,"ES",NA,NA,NA,NA,0
"496","PORTAGE PARK","POINT (-87.76100700389996 41.95698763657293)","5330 W Berteau Ave",41.956988,-87.761007,"ES",NA,NA,NA,NA,0
"497","POWELL","POINT (-87.55678924866949 41.76033179967894)","7511 S South Shore Dr",41.760332,-87.556789,"ES",NA,NA,NA,NA,0
"498","PRESCOTT","POINT (-87.66952750370201 41.928841099895514)","1632 W Wrightwood Ave",41.928841,-87.669528,"ES",NA,NA,NA,NA,0
"499","PRIETO","POINT (-87.76578057074568 41.921317581925514)","2231 N Central Ave",41.921318,-87.765781,"ES",NA,NA,NA,NA,0
"500","PRITZKER","POINT (-87.67776098130497 41.90705300450445)","2009 W Schiller St",41.907053,-87.677761,"ES",NA,NA,NA,NA,0
"501","PROLOGUE - EARLY COLLEGE HS","POINT (-87.66354080857676 41.90307017915081)","1135 N Cleaver St",41.90307,-87.663541,"HS",NA,NA,NA,NA,0
"502","PROLOGUE - JOHNSTON HS","POINT (-87.66147456602064 41.72112619184844)","1549 W 95th St",41.721136,-87.662416,"HS",NA,NA,NA,NA,0
"503","PROLOGUE - WINNIE MANDELA HS","POINT (-87.5758830347429 41.752015881353145)","7847 S Jeffery Blvd",41.752016,-87.575883,"HS",NA,NA,NA,NA,0
"504","PROSSER HS","POINT (-87.76104831550296 41.920059399235065)","2148 N Long Ave",41.920059,-87.761048,"HS","8:00 AM","3:16 PM","9:00 AM","3:16 PM",1
"505","PROVIDENCE ENGLEWOOD","POINT (-87.6639958298005 41.775367367121)","6515 S Ashland Ave",41.775367,-87.663996,"ES",NA,NA,NA,NA,0
"506","PRUSSING","POINT (-87.77241416626396 41.965619070939255)","4650 N Menard Ave",41.965619,-87.772414,"ES",NA,NA,NA,NA,0
"507","PULASKI","POINT (-87.68380143055045 41.9184862777476)","2230 W McLean Ave",41.918486,-87.683801,"ES",NA,NA,NA,NA,0
"508","PULLMAN","POINT (-87.60943096710687 41.6888193521847)","11311 S Forrestville Ave",41.688819,-87.609431,"ES",NA,NA,NA,NA,0
"509","RABY HS","POINT (-87.71542311972765 41.8862100591901)","3545 W Fulton Blvd",41.88621,-87.715423,"HS","8:00 AM","3:23 PM","8:00 AM","3:23 PM",2
"510","RANDOLPH","POINT (-87.67596551370933 41.76061412716346)","7316 S Hoyne Ave",41.760614,-87.675966,"ES",NA,NA,NA,NA,0
"511","RAVENSWOOD","POINT (-87.6709224190332 41.96074569219853)","4332 N Paulina St",41.960746,-87.670922,"ES",NA,NA,NA,NA,0
"512","RAY","POINT (-87.59475207229016 41.79234788006748)","5631 S Kimbark Ave",41.792348,-87.594752,"ES",NA,NA,NA,NA,0
"513","REAVIS","POINT (-87.60492543005785 41.80417379119432)","834 E 50th St",41.804174,-87.604925,"ES",NA,NA,NA,NA,0
"514","REILLY","POINT (-87.71954054434434 41.941093990191845)","3650 W School St",41.941094,-87.719541,"ES",NA,NA,NA,NA,0
"515","REINBERG","POINT (-87.76898261837614 41.94301889528404)","3425 N Major Ave",41.943019,-87.768983,"ES",NA,NA,NA,NA,0
"516","REVERE","POINT (-87.60017682377791 41.76419586389066)","1010 E 72nd St",41.764196,-87.600177,"ES",NA,NA,NA,NA,0
"517","RICHARDS HS","POINT (-87.66227784528805 41.80288137488922)","5009 S Laflin St",41.802881,-87.662278,"HS","7:45 AM","3:00 PM","7:45 AM","3:00 PM",2
"518","RICKOVER MILITARY HS","POINT (-87.66578850828587 41.98902070918175)","5900 N Glenwood Ave",41.989021,-87.665789,"HS",NA,NA,NA,NA,0
"519","ROBESON HS","POINT (-87.63715271751444 41.76971379519646)","6835 S Normal Blvd",41.769714,-87.637153,"HS","8:00 AM","3:15 PM","8:00 AM","3:15 PM",2
"520","ROBINSON","POINT (-87.59906677134458 41.8173493266005)","4225 S Lake Park Ave",41.817349,-87.599067,"ES",NA,NA,NA,NA,0
"521","ROGERS","POINT (-87.69718539353832 42.01526504535992)","7345 N Washtenaw Ave",42.015265,-87.697185,"ES",NA,NA,NA,NA,0
"522","ROOSEVELT HS","POINT (-87.71481861588198 41.96482788390732)","3436 W Wilson Ave",41.964828,-87.714819,"HS",NA,NA,NA,NA,0
"523","ROWE","POINT (-87.66407246833533 41.90779717820805)","1424 N Cleaver St",41.907797,-87.664072,"ES",NA,NA,NA,NA,0
"524","RUDOLPH","POINT (-87.6694767090183 41.883568167731944)","110 N Paulina St",41.883568,-87.669477,"ES","9:00 AM","4:00 PM","7:45 AM","4:00 PM",1
"525","RUGGLES","POINT (-87.61806644776226 41.75194557554217)","7831 S Prairie Ave",41.751946,-87.618066,"ES",NA,NA,NA,NA,0
"526","RUIZ","POINT (-87.68074453531749 41.84810093888265)","2410 S Leavitt St",41.848101,-87.680745,"ES",NA,NA,NA,NA,0
"527","RYDER","POINT (-87.63884270032504 41.73537938898103)","8716 S Wallace St",41.735379,-87.638843,"ES",NA,NA,NA,NA,0
"528","SABIN","POINT (-87.68304994229757 41.90681580935293)","2216 W Hirsch St",41.906816,-87.68305,"ES",NA,NA,NA,NA,0
"529","SALAZAR","POINT (-87.63363243438305 41.901416533893645)","160 W Wendell St",41.901417,-87.633632,"ES",NA,NA,NA,NA,0
"530","SANDOVAL","POINT (-87.71098733217322 41.792346083615875)","5534 S Saint Louis Ave",41.792346,-87.710987,"ES",NA,NA,NA,NA,0
"531","SAUCEDO","POINT (-87.6973155379961 41.84794071574654)","2850 W 24th Blvd",41.847941,-87.697316,"ES",NA,NA,NA,NA,0
"532","SAUGANASH","POINT (-87.7459514446418 41.99116924559475)","6040 N Kilpatrick Ave",41.991169,-87.745951,"ES",NA,NA,NA,NA,0
"533","SAWYER","POINT (-87.70500578092809 41.79749820260434)","5248 S Sawyer Ave",41.797498,-87.705006,"ES",NA,NA,NA,NA,0
"534","SAYRE","POINT (-87.79872070516765 41.914150629630946)","1850 N Newland Ave",41.914151,-87.798721,"ES",NA,NA,NA,NA,0
"535","SCAMMON","POINT (-87.73217877731558 41.94167760343948)","4201 W Henderson St",41.941678,-87.732179,"ES",NA,NA,NA,NA,0
"536","SCHMID","POINT (-87.59693188137994 41.71698887204983)","9755 S Greenwood Ave",41.716989,-87.596932,"ES",NA,NA,NA,NA,0
"537","SCHUBERT","POINT (-87.76119046882305 41.930403315731624)","2727 N Long Ave",41.930403,-87.76119,"ES",NA,NA,NA,NA,0
"538","SCHURZ HS","POINT (-87.73561211025743 41.94636454254735)","3601 N Milwaukee Ave",41.946365,-87.735612,"HS","7:45 AM","3:00 PM","7:45 AM","3:00 PM",2
"539","SENN HS","POINT (-87.6671361896679 41.98902853819406)","5900 N Glenwood Ave",41.989029,-87.667136,"HS",NA,NA,NA,NA,0
"540","SEWARD","POINT (-87.66877201103031 41.81033324026888)","4600 S Hermitage Ave",41.810333,-87.668772,"ES",NA,NA,NA,NA,0
"541","SHABAZZ - DUSABLE HS","POINT (-87.62501515001941 41.80430932611958)","4934 S Wabash Ave",41.804309,-87.625015,"HS",NA,NA,NA,NA,0
"542","SHABAZZ - SHABAZZ","POINT (-87.60025455370554 41.752458488475774)","7823 S Ellis Ave",41.752458,-87.600255,"ES",NA,NA,NA,NA,0
"543","SHABAZZ - SIZEMORE","POINT (-87.66763900783317 41.7673901124393)","6936 S Hermitage Ave",41.76739,-87.667639,"ES",NA,NA,NA,NA,0
"544","SHERIDAN","POINT (-87.64133980534018 41.84440015845198)","533 W 27th St",41.8444,-87.64134,"ES","7:45 AM","2:45 PM","7:30 AM","2:45 PM",1
"545","SHERMAN","POINT (-87.65022144596368 41.79976620500945)","1000 W 52nd St",41.799766,-87.650221,"ES",NA,NA,NA,NA,0
"546","SHERWOOD","POINT (-87.63227938171381 41.79080024288842)","245 W 57th St",41.7908,-87.632279,"ES",NA,NA,NA,NA,0
"547","SHIELDS","POINT (-87.68964723567423 41.81590948606922)","4250 S Rockwell St",41.815909,-87.689647,"ES",NA,NA,NA,NA,0
"548","SHIELDS MIDDLE","POINT (-87.68977977296805 41.8064914104356)","2611 W 48th St",41.806491,-87.68978,"ES",NA,NA,NA,NA,0
"549","SHOESMITH","POINT (-87.59390494200514 41.80429401615557)","1330 E 50th St",41.804294,-87.593905,"ES",NA,NA,NA,NA,0
"550","SHOOP","POINT (-87.65866905249726 41.69091887642116)","11140 S Bishop St",41.690919,-87.658669,"ES",NA,NA,NA,NA,0
"551","SIMEON HS","POINT (-87.63541036866685 41.745781229905525)","8147 S Vincennes Ave",41.745781,-87.63541,"HS","8:00 AM","3:15 PM","8:00 AM","3:15 PM",2
"552","SIMPSON HS","POINT (-87.66872222929887 41.8643654823773)","1321 S Paulina St",41.864365,-87.668722,"HS","8:00 AM","3:00 PM","8:00 AM","3:00 PM",2
"553","SKINNER","POINT (-87.65941897613492 41.87910254260814)","1260 W Adams St",41.879103,-87.659419,"ES",NA,NA,NA,NA,0
"554","SKINNER NORTH","POINT (-87.6448414953384 41.905109118819546)","640 W Scott St",41.905109,-87.644841,"ES","8:30 AM","3:30 PM","8:30 AM","3:30 PM",2
"555","SMITH","POINT (-87.60466040848978 41.70755761663942)","744 E 103rd St",41.707558,-87.60466,"ES",NA,NA,NA,NA,0
"556","SMYSER","POINT (-87.7819745380622 41.95886803554341)","4310 N Melvina Ave",41.958868,-87.781975,"ES",NA,NA,NA,NA,0
"557","SMYTH","POINT (-87.65344502704846 41.86535101769646)","1059 W 13th St",41.865351,-87.653445,"ES",NA,NA,NA,NA,0
"558","SOCIAL JUSTICE HS","POINT (-87.73529946918104 41.83350727399463)","3120 S Kostner Ave",41.833507,-87.735299,"HS",NA,NA,NA,NA,0
"559","SOLOMON","POINT (-87.72404263322767 41.993942332486824)","6206 N Hamlin Ave",41.993942,-87.724043,"ES",NA,NA,NA,NA,0
"560","SOLORIO HS","POINT (-87.71105882230168 41.79520055470527)","5400 S St Louis Ave",41.795201,-87.711059,"HS","8:00 AM","3:23 PM","8:00 AM","3:23 PM",2
"561","SOUTH LOOP","POINT (-87.62861500404436 41.86687450554005)","1212 S Plymouth Ct",41.866875,-87.628615,"ES",NA,NA,NA,NA,0
"562","SOUTH SHORE","POINT (-87.59039610192795 41.767755108445684)","1415 E 70th St",41.767755,-87.590396,"ES",NA,NA,NA,NA,0
"563","SOUTH SHORE INTL HS","POINT (-87.57635263812654 41.7587916625376)","1955 E 75th St",41.758792,-87.576353,"HS","8:00 AM","3:30 PM","8:00 AM","3:30 PM",2
"564","SOUTHSIDE HS","POINT (-87.67594676755051 41.759852428041924)","7342 S Hoyne Ave",41.759852,-87.675947,"HS","8:45 AM","4:00 PM","9:00 AM","4:00 PM",1
"565","SPENCER","POINT (-87.75044473139498 41.884876397970274)","214 N Lavergne Ave",41.884876,-87.750445,"ES",NA,NA,NA,NA,0
"566","SPRY ES","POINT (-87.70018447189595 41.84774672195404)","2400 S Marshall Blvd",41.847747,-87.700184,"ES",NA,NA,NA,NA,0
"567","SPRY HS","POINT (-87.6989461062751 41.847761694510176)","2400 S Marshall Blvd",41.847762,-87.698946,"HS",NA,NA,NA,NA,0
"568","STAGG","POINT (-87.64921669330236 41.7589247318467)","7424 S Morgan St",41.758925,-87.649217,"ES",NA,NA,NA,NA,0
"569","STEINMETZ HS","POINT (-87.78351523303839 41.93563358717894)","3030 N Mobile Ave",41.935634,-87.783515,"HS",NA,NA,NA,NA,0
"570","STEM","POINT (-87.66496913288216 41.868575878810084)","1522 W Fillmore St",41.868576,-87.664969,"ES",NA,NA,NA,NA,0
"571","STEVENSON","POINT (-87.73166568474505 41.7471068786288)","8010 S Kostner Ave",41.747107,-87.731666,"ES",NA,NA,NA,NA,0
"572","STOCK","POINT (-87.81419465462673 42.01689164094716)","7507 W Birchwood Ave",42.016892,-87.814195,"ES",NA,NA,NA,NA,0
"573","STONE","POINT (-87.68479278594937 41.99535905120101)","6239 N Leavitt St",41.995359,-87.684793,"ES","8:00 AM","3:00 PM","8:00 AM","3:00 PM",2
"574","STOWE","POINT (-87.71331750109282 41.91193807880035)","3444 W Wabansia Ave",41.911938,-87.713318,"ES",NA,NA,NA,NA,0
"575","SUDER","POINT (-87.67763611213762 41.88321451695421)","2022 W Washington Blvd",41.883215,-87.677636,"ES",NA,NA,NA,NA,0
"576","SULLIVAN HS","POINT (-87.6691921456409 42.00268755820679)","6631 N Bosworth Ave",42.002688,-87.669192,"HS","8:00 AM","3:15 PM","8:00 AM","3:15 PM",2
"577","SUMNER","POINT (-87.73352395133709 41.870828378080496)","4320 W 5th Ave",41.870828,-87.733524,"ES",NA,NA,NA,NA,0
"578","SUTHERLAND","POINT (-87.67682117251097 41.711445070109775)","10015 S Leavitt St",41.711445,-87.676821,"ES",NA,NA,NA,NA,0
"579","SWIFT","POINT (-87.65829607973969 41.98913906014746)","5900 N Winthrop Ave",41.989139,-87.658296,"ES",NA,NA,NA,NA,0
"580","TAFT HS","POINT (-87.79154724889433 41.982960985797455)","6530 W Bryn Mawr Ave",41.982961,-87.791547,"HS","7:45 AM","3:00 PM","7:45 AM","3:00 PM",2
"581","TALCOTT","POINT (-87.67372272417069 41.8924046111448)","1840 W Ohio St",41.892405,-87.673723,"ES",NA,NA,NA,NA,0
"582","TALMAN","POINT (-87.69026083933244 41.79404805043551)","5450 S Talman Ave",41.794048,-87.690261,"ES",NA,NA,NA,NA,0
"583","TANNER","POINT (-87.6067910349395 41.76067263482151)","7350 S Evans Ave",41.760673,-87.606791,"ES",NA,NA,NA,NA,0
"584","TARKINGTON","POINT (-87.70644464815099 41.76440707535929)","3330 W 71st St",41.764407,-87.706445,"ES",NA,NA,NA,NA,0
"585","TAYLOR","POINT (-87.53297076729864 41.71547037534326)","9912 S Avenue H",41.71547,-87.532971,"ES",NA,NA,NA,NA,0
"586","TEAM HS","POINT (-87.63301879085243 41.78148490334858)","6201 S Stewart Ave",41.781485,-87.633019,"HS","7:45 AM","3:13 PM","7:45 AM","3:13 PM",2
"587","TELPOCHCALLI","POINT (-87.69600587941514 41.84794743181953)","2832 W 24th Blvd",41.847947,-87.696006,"ES",NA,NA,NA,NA,0
"588","THOMAS","POINT (-87.67754184981871 41.82777491308939)","3625 S Hoyne Ave",41.827775,-87.677542,"ES",NA,NA,NA,NA,0
"589","THORP J","POINT (-87.54427997610216 41.733324237774895)","8914 S Buffalo Ave",41.733324,-87.54428,"ES",NA,NA,NA,NA,0
"590","THORP O","POINT (-87.7776312953377 41.948571311090376)","6024 W Warwick Ave",41.948571,-87.777631,"ES",NA,NA,NA,NA,0
"591","TILDEN HS","POINT (-87.64296648369356 41.807510070907846)","4747 S Union Ave",41.80751,-87.642966,"HS","8:00 AM","3:31 PM","8:00 AM","3:31 PM",2
"592","TILL","POINT (-87.60935721071795 41.7754238433123)","6543 S Champlain Ave",41.775424,-87.609357,"ES",NA,NA,NA,NA,0
"593","TILTON","POINT (-87.7305663850525 41.88410224082623)","223 N Keeler Ave",41.884102,-87.730566,"ES",NA,NA,NA,NA,0
"594","TONTI","POINT (-87.70817918402508 41.78752322907925)","5815 S Homan Ave",41.787523,-87.708179,"ES",NA,NA,NA,NA,0
"595","TURNER-DREW","POINT (-87.63016447922544 41.72560921545335)","9300 S Princeton Ave",41.725609,-87.630164,"ES",NA,NA,NA,NA,0
"596","TWAIN","POINT (-87.75892840126892 41.79904639682349)","5134 S Lotus Ave",41.799046,-87.758928,"ES",NA,NA,NA,NA,0
"597","U OF C - DONOGHUE","POINT (-87.60850078074054 41.827726080886215)","707 E 37th St",41.827726,-87.608501,"ES",NA,NA,NA,NA,0
"598","U OF C - NKO","POINT (-87.59878626823252 41.81118286617196)","1119 E 46th St",41.811183,-87.598786,"ES",NA,NA,NA,NA,0
"599","U OF C - WOODLAWN HS","POINT (-87.59811391957531 41.77812969765141)","6420 S University Ave",41.77813,-87.598114,"HS",NA,NA,NA,NA,0
"600","U OF C - WOODSON","POINT (-87.60842562201805 41.81354730382042)","4444 S Evans Ave",41.813547,-87.608426,"ES",NA,NA,NA,NA,0
"601","UNO - BRIGHTON PARK","POINT (-87.6932383845312 41.81310944476644)","4420 S Fairfield Ave",41.813109,-87.693238,"ES",NA,NA,NA,NA,0
"602","UNO - CISNEROS","POINT (-87.69399616166392 41.8228837408415)","2744 W Pershing Rd",41.822884,-87.693996,"ES",NA,NA,NA,NA,0
"603","UNO - CLEMENTE","POINT (-87.78783043766516 41.917951679251956)","2050 N Natchez Ave",41.917952,-87.78783,"ES",NA,NA,NA,NA,0
"604","UNO - DE LAS CASAS","POINT (-87.66794916939253 41.85950400763012)","1641 W 16th St",41.859504,-87.667949,"ES",NA,NA,NA,NA,0
"605","UNO - FUENTES","POINT (-87.69959365156127 41.937475775349675)","2845 W Barry Ave",41.937476,-87.699594,"ES",NA,NA,NA,NA,0
"606","UNO - GARCIA HS","POINT (-87.73046684906748 41.809170789108045)","4248 W 47th St",41.809171,-87.730467,"HS",NA,NA,NA,NA,0
"607","UNO - MARQUEZ","POINT (-87.69739409676 41.80830882340626)","2916 W 47th St",41.808309,-87.697394,"ES",NA,NA,NA,NA,0
"608","UNO - PAZ","POINT (-87.6925508987193 41.85003541244107)","2651 W 23rd St",41.850035,-87.692551,"ES",NA,NA,NA,NA,0
"609","UNO - ROGERS PARK","POINT (-87.68440568197208 42.01647588122094)","7416 N Ridge Blvd",42.016476,-87.684406,"ES",NA,NA,NA,NA,0
"610","UNO - SANTIAGO","POINT (-87.68989562535536 41.900343634538686)","2510 W Cortez St",41.900344,-87.689896,"ES",NA,NA,NA,NA,0
"611","UNO - SOCCER ELEM","POINT (-87.70879678374817 41.8010424135067)","5050 S Homan Ave",41.801042,-87.708797,"ES",NA,NA,NA,NA,0
"612","UNO - SOCCER HS","POINT (-87.71102498431937 41.80176224554366)","5025 S Saint Louis Ave",41.801762,-87.711025,"HS",NA,NA,NA,NA,0
"613","UNO - TAMAYO","POINT (-87.69386163597656 41.799930186168076)","5135 S California Ave",41.79993,-87.693862,"ES",NA,NA,NA,NA,0
"614","UNO - TORRES","POINT (-87.73045044324964 41.80819980590754)","4248 W 47th St",41.8082,-87.73045,"ES",NA,NA,NA,NA,0
"615","UNO - ZIZUMBO","POINT (-87.73049511709266 41.81013478659646)","4248 W 47th St",41.810135,-87.730495,"ES",NA,NA,NA,NA,0
"616","UPLIFT HS","POINT (-87.65247334602134 41.965547461223615)","900 W Wilson Ave",41.965547,-87.652473,"HS","8:30 AM","3:45 PM","8:30 AM","3:45 PM",2
"617","URBAN PREP - BRONZEVILLE HS","POINT (-87.61362864745674 41.831117530464496)","521 E 35th St",41.831118,-87.613629,"HS",NA,NA,NA,NA,0
"618","URBAN PREP - ENGLEWOOD HS","POINT (-87.63435669188824 41.78149781596477)","6201 S Stewart Ave",41.781498,-87.634357,"HS",NA,NA,NA,NA,0
"619","URBAN PREP - WEST HS","POINT (-87.66010654014806 41.86254001900926)","1326 W 14th Pl",41.86254,-87.660107,"HS",NA,NA,NA,NA,0
"620","VANDERPOEL","POINT (-87.66555862186499 41.720817033711015)","9510 S Prospect Ave",41.720817,-87.665559,"ES",NA,NA,NA,NA,0
"621","VAUGHN HS","POINT (-87.76466317315523 41.960363796062815)","4355 N Linder Ave",41.960364,-87.764663,"HS",NA,NA,NA,NA,0
"622","VICK","POINT (-87.68567659747706 41.6881908373849)","2554 W 113th St",41.688191,-87.685677,"ES",NA,NA,NA,NA,0
"623","VOISE HS","POINT (-87.76191637311881 41.885993286649324)","231 N Pine Ave",41.885993,-87.761916,"HS","8:00 AM","3:15 PM","9:00 AM","3:15 PM",1
"624","VOLTA","POINT (-87.72460522431093 41.97163400099482)","4950 N Avers Ave",41.971634,-87.724605,"ES",NA,NA,NA,NA,0
"625","VON LINNE","POINT (-87.7026346744549 41.94000927919317)","3221 N Sacramento Ave",41.940009,-87.702635,"ES",NA,NA,NA,NA,0
"626","VON STEUBEN HS","POINT (-87.71338625325822 41.97318504776281)","5039 N Kimball Ave",41.973185,-87.713386,"HS",NA,NA,NA,NA,0
"627","WACKER","POINT (-87.64804432354694 41.71619329538309)","9746 S Morgan St",41.716193,-87.648044,"ES",NA,NA,NA,NA,0
"628","WADSWORTH","POINT (-87.60101811221732 41.77347789750089)","6650 S Ellis Ave",41.773478,-87.601018,"ES",NA,NA,NA,NA,0
"629","WALSH","POINT (-87.6480861747423 41.85483574702165)","2015 S Peoria St",41.854836,-87.648086,"ES",NA,NA,NA,NA,0
"630","WARD J","POINT (-87.63535578863305 41.84398008867346)","2701 S Shields Ave",41.84398,-87.635356,"ES",NA,NA,NA,NA,0
"631","WARD L","POINT (-87.71879729276962 41.89323560979409)","646 N Lawndale Ave",41.893236,-87.718797,"ES",NA,NA,NA,NA,0
"632","WARREN","POINT (-87.57535254915516 41.726762908727196)","9239 S Jeffery Ave",41.726763,-87.575353,"ES",NA,NA,NA,NA,0
"633","WASHINGTON G ES","POINT (-87.53601529926293 41.688131483415376)","3611 E 114th St",41.688131,-87.536015,"ES",NA,NA,NA,NA,0
"634","WASHINGTON H ES","POINT (-87.59625661608355 41.72853414220846)","9130 S University Ave",41.728534,-87.596257,"ES",NA,NA,NA,NA,0
"635","WASHINGTON HS","POINT (-87.53757030015832 41.688136935652565)","3535 E 114th St",41.688137,-87.53757,"HS","7:45 AM","3:08 PM","9:00 AM","3:08 PM",1
"636","WATERS","POINT (-87.69133251140961 41.96436540371576)","4540 N Campbell Ave",41.964365,-87.691333,"ES",NA,NA,NA,NA,0
"637","WEBSTER","POINT (-87.72752437478212 41.86991585766012)","4055 W Arthington St",41.869916,-87.727524,"ES",NA,NA,NA,NA,0
"638","WELLS ES","POINT (-87.61977965997495 41.82735526599218)","249 E 37th St",41.827355,-87.61978,"ES",NA,NA,NA,NA,0
"639","WELLS HS","POINT (-87.66748286871373 41.898994707393015)","936 N Ashland Ave",41.898995,-87.667483,"HS","8:00 AM","3:15 PM","9:00 AM","3:15 PM",1
"640","WENTWORTH","POINT (-87.6582048358614 41.765075895967996)","1340 W 71st St",41.765076,-87.658205,"ES",NA,NA,NA,NA,0
"641","WEST PARK","POINT (-87.73244309617895 41.90690720465881)","1425 N Tripp Ave",41.906907,-87.732443,"ES",NA,NA,NA,NA,0
"642","WEST RIDGE","POINT (-87.70591720544945 42.00295899409873)","6700 N Whipple St",42.002959,-87.705917,"ES",NA,NA,NA,NA,0
"643","WESTCOTT","POINT (-87.63475051610581 41.74886822495086)","409 W 80th St",41.748868,-87.634751,"ES",NA,NA,NA,NA,0
"644","WESTINGHOUSE HS","POINT (-87.70733230851017 41.88997720284965)","3223 W Franklin Blvd",41.889977,-87.707332,"HS",NA,NA,NA,NA,0
"645","WHISTLER","POINT (-87.65538382157727 41.68390700953974)","11533 S Ada St",41.683907,-87.655384,"ES",NA,NA,NA,NA,0
"646","WHITE","POINT (-87.6505385418787 41.672309406220215)","1136 W 122nd St",41.672309,-87.650539,"ES",NA,NA,NA,NA,0
"647","WHITNEY","POINT (-87.72554564238642 41.84008042673928)","2815 S Komensky Ave",41.84008,-87.725546,"ES",NA,NA,NA,NA,0
"648","WHITTIER","POINT (-87.67339165459607 41.85048088648075)","1900 W 23rd St",41.850481,-87.673392,"ES",NA,NA,NA,NA,0
"649","WILDWOOD","POINT (-87.77834486172273 42.00749066939125)","6950 N Hiawatha Ave",42.007491,-87.778345,"ES",NA,NA,NA,NA,0
"650","WILLIAMS HS","POINT (-87.62502998016339 41.806117596594504)","4934 S Wabash Ave",41.806118,-87.62503,"HS",NA,NA,NA,NA,0
"651","WOODLAWN","POINT (-87.5943919960078 41.773365531206366)","6657 S Kimbark Ave",41.773366,-87.594392,"ES",NA,NA,NA,NA,0
"652","WOODSON","POINT (-87.6084187686334 41.81449879541944)","4414 S Evans Ave",41.814499,-87.608419,"ES",NA,NA,NA,NA,0
"653","WORLD LANGUAGE HS","POINT (-87.73529221690441 41.8343966167672)","3120 S Kostner Ave",41.834397,-87.735292,"HS",NA,NA,NA,NA,0
"654","YATES","POINT (-87.70028031304513 41.9150385469464)","1839 N Richmond St",41.915039,-87.70028,"ES",NA,NA,NA,NA,0
"655","YCCS - ADDAMS","POINT (-87.64488797557976 41.85720785611458)","1814 S Union Ave",41.857208,-87.644888,"HS",NA,NA,NA,NA,0
"656","YCCS - ASPIRA PANTOJA","POINT (-87.72713735979745 41.93818660277678)","3121 N Pulaski Rd",41.938187,-87.727137,"HS",NA,NA,NA,NA,0
"657","YCCS - ASSOCIATION HOUSE","POINT (-87.70685988337249 41.901572406590965)","1116 N Kedzie Ave",41.901572,-87.70686,"HS",NA,NA,NA,NA,0
"658","YCCS - AUSTIN CAREER","POINT (-87.76022117541595 41.894976390364945)","5352 W Chicago Ave",41.894976,-87.760221,"HS",NA,NA,NA,NA,0
"659","YCCS - CAMPOS","POINT (-87.69600602271211 41.90284969690219)","2739 W Division St",41.90285,-87.696006,"HS",NA,NA,NA,NA,0
"660","YCCS - CCA ACADEMY","POINT (-87.72366217187063 41.864943352149254)","1231 S Pulaski Rd",41.864943,-87.723662,"HS",NA,NA,NA,NA,0
"661","YCCS - CHATHAM","POINT (-87.60697990890328 41.73013138447743)","9035 S Langley Ave",41.730131,-87.60698,"HS",NA,NA,NA,NA,0
"662","YCCS - HOUSTON","POINT (-87.61356238526882 41.77418269849911)","6620 S Dr Martin Luther King Jr Dr",41.773962,-87.61574,"HS",NA,NA,NA,NA,0
"663","YCCS - INNOVATIONS","POINT (-87.62773414533866 41.88304717129258)","17 N. State St.",41.883047,-87.627734,"HS",NA,NA,NA,NA,0
"664","YCCS - LATINO YOUTH","POINT (-87.69543001372814 41.85466465534544)","2001 S California Ave",41.854665,-87.69543,"HS",NA,NA,NA,NA,0
"665","YCCS - MCKINLEY","POINT (-87.62533077021693 41.84133116687557)","2920 S Wabash Ave",41.841331,-87.625331,"HS",NA,NA,NA,NA,0
"666","YCCS - OLIVE HARVEY","POINT (-87.59233320205446 41.71292209999135)","10001 S Woodlawn Ave",41.712922,-87.592333,"HS",NA,NA,NA,NA,0
"667","YCCS - SCHOLASTIC ACHIEVEMENT","POINT (-87.74253889903409 41.88044718691512)","4651 W Madison St",41.880447,-87.742539,"HS",NA,NA,NA,NA,0
"668","YCCS - SULLIVAN","POINT (-87.57849166986543 41.74628656952744)","8164 S South Chicago Ave",41.746287,-87.578492,"HS",NA,NA,NA,NA,0
"669","YCCS - TRUMAN","POINT (-87.65923928994071 41.96529481641866)","1145 W Wilson Ave",41.965295,-87.659239,"HS",NA,NA,NA,NA,0
"670","YCCS - VIRTUAL","POINT (-87.6741384012902 41.876316727196624)","1900 W Van Buren St",41.876317,-87.674138,"HS",NA,NA,NA,NA,0
"671","YCCS - WEST TOWN","POINT (-87.70205280069851 41.890803121149155)","500 N Sacramento Blvd",41.890803,-87.702053,"HS",NA,NA,NA,NA,0
"672","YCCS - WESTSIDE HOLISTIC","POINT (-87.74881028931917 41.902240031833365)","4909 W Division St",41.90224,-87.74881,"HS",NA,NA,NA,NA,0
"673","YCCS - YOUTH CONNECTION","POINT (-87.62678146947087 41.832072058158424)","3424 S State St",41.832072,-87.626781,"HS",NA,NA,NA,NA,0
"674","YCCS - YOUTH DEVELOPMENT","POINT (-87.64173118688463 41.75137711160915)","7836 S Union Ave",41.751377,-87.641731,"HS",NA,NA,NA,NA,0
"675","YORK HS","POINT (-87.6952610154737 41.842533347975746)","2700 S California Ave",41.842533,-87.695261,"HS",NA,NA,NA,NA,0
"676","YOUNG ES","POINT (-87.76714284547637 41.906790573759665)","1434 N Parkside Ave",41.906791,-87.767143,"ES",NA,NA,NA,NA,0
"677","YOUNG HS","POINT (-87.66423334280815 41.87860253271967)","211 S Laflin St",41.878603,-87.664233,"HS","8:00 AM","3:15 PM","8:00 AM","3:15 PM",3
"678","YOUNG WOMENS HS","POINT (-87.61872379622207 41.84454380568922)","2641 S Calumet Ave",41.844544,-87.618724,"HS",NA,NA,NA,NA,0
"679","ZAPATA","POINT (-87.73431332420904 41.841393803560145)","2728 S Kostner Ave",41.841394,-87.734313,"ES",NA,NA,NA,NA,0
"680","CAMELOT SAFE ACADEMY HS",NA,NA,NA,NA,NA,"8:45 AM","3:45 PM","9:00 AM","3:45 PM",1
"681","CARVER MILITARY",NA,NA,NA,NA,NA,"8:00 AM","3:26 PM","8:15 AM","3:26 PM",1
"682","DISNEY II MAGNET HS",NA,NA,NA,NA,NA,"8:30 AM","3:30 PM","9:00 AM","3:30 PM",1
"683","EDISON, T",NA,NA,NA,NA,NA,"8:00 AM","3:00 PM","7:45 AM","3:00 PM",1
"684","GOODE ACAD HS",NA,NA,NA,NA,NA,"7:45 AM","3:00 PM","7:30 AM","3:00 PM",1
"685","JACKSON, A",NA,NA,NA,NA,NA,"8:30 AM","3:30 PM","7:45 AM","3:30 PM",1
"686","LANE HS",NA,NA,NA,NA,NA,"8:00 AM","3:23 PM","8:00 AM","3:23 PM",2
"687","LITTLE BLACK PEARL ACADEMY HS",NA,NA,NA,NA,NA,"8:00 AM","3:30 PM","9:00 AM","3:30 PM",1
"688","STEINMETZ COLLEGE PREP HS",NA,NA,NA,NA,NA,"8:00 AM","3:15 PM","9:00 AM","3:15 PM",1
"689","STEM ES",NA,NA,NA,NA,NA,"8:00 AM","3:00 PM","7:45 AM","3:00 PM",1
